{"type": "FeatureCollection", "features": [{"type": "Feature", "properties": {"name": "Новосибирск", "value": 223}, "geometry": {"type": "MultiPolygon", "coordinates": [[[[82.90754193037385, 55.133484850521015], [82.90754193037385, 55.12450173877111], [82.92330711571735, 55.12450173877111], [82.92330711571735, 55.115518627021196], [82.95483748640434, 55.115518627021196], [82.95483748640434, 55.10653551527129], [82.97060267174784, 55.10653551527129], [82.97060267174784, 55.115518627021196], [82.98636785709132, 55.115518627021196], [82.98636785709132, 55.133484850521015], [83.00213304243482, 55.133484850521015], [83.00213304243482, 55.09755240352138], [83.01789822777832, 55.09755240352138], [83.01789822777832, 55.088569291771464], [83.03366341312181, 55.088569291771464], [83.03366341312181, 55.07958618002156], [83.04942859846531, 55.07958618002156], [83.04942859846531, 55.070603068271645], [83.0809589691523, 55.070603068271645], [83.0809589691523, 55.01670439777219], [83.06519378380881, 55.01670439777219], [83.06519378380881, 54.99873817427236], [83.0809589691523, 54.99873817427236], [83.0809589691523, 54.98077195077254], [83.0967241544958, 54.98077195077254], [83.0967241544958, 54.971788839022636], [83.14401971052628, 54.971788839022636], [83.14401971052628, 54.96280572727272], [83.15978489586978, 54.96280572727272], [83.15978489586978, 54.944839503772904], [83.14401971052628, 54.944839503772904], [83.14401971052628, 54.908907056773266], [83.1282545251828, 54.908907056773266], [83.1282545251828, 54.89992394502335], [83.14401971052628, 54.89992394502335], [83.14401971052628, 54.881957721523534], [83.1282545251828, 54.881957721523534], [83.1282545251828, 54.84602527452389], [83.14401971052628, 54.84602527452389], [83.14401971052628, 54.83704216277398], [83.1282545251828, 54.83704216277398], [83.1282545251828, 54.82805905102407], [83.14401971052628, 54.82805905102407], [83.14401971052628, 54.81009282752425], [83.1282545251828, 54.81009282752425], [83.1282545251828, 54.80110971577434], [83.1124893398393, 54.80110971577434], [83.1124893398393, 54.81009282752425], [83.0809589691523, 54.81009282752425], [83.0809589691523, 54.83704216277398], [83.06519378380881, 54.83704216277398], [83.06519378380881, 54.82805905102407], [83.04942859846531, 54.82805905102407], [83.04942859846531, 54.84602527452389], [83.03366341312181, 54.84602527452389], [83.03366341312181, 54.83704216277398], [83.00213304243482, 54.83704216277398], [83.00213304243482, 54.84602527452389], [82.98636785709132, 54.84602527452389], [82.98636785709132, 54.8550083862738], [82.97060267174784, 54.8550083862738], [82.97060267174784, 54.84602527452389], [82.95483748640434, 54.84602527452389], [82.95483748640434, 54.83704216277398], [82.92330711571735, 54.83704216277398], [82.92330711571735, 54.863991498023715], [82.93907230106085, 54.863991498023715], [82.93907230106085, 54.87297460977362], [83.00213304243482, 54.87297460977362], [83.00213304243482, 54.881957721523534], [83.01789822777832, 54.881957721523534], [83.01789822777832, 54.89992394502335], [83.03366341312181, 54.89992394502335], [83.03366341312181, 54.944839503772904], [83.01789822777832, 54.944839503772904], [83.01789822777832, 54.93585639202299], [82.93907230106085, 54.93585639202299], [82.93907230106085, 54.926873280273085], [82.89177674503036, 54.926873280273085], [82.89177674503036, 54.93585639202299], [82.87601155968686, 54.93585639202299], [82.87601155968686, 54.926873280273085], [82.86024637434336, 54.926873280273085], [82.86024637434336, 54.93585639202299], [82.82871600365637, 54.93585639202299], [82.82871600365637, 54.944839503772904], [82.81295081831287, 54.944839503772904], [82.81295081831287, 54.95382261552281], [82.79718563296939, 54.95382261552281], [82.79718563296939, 54.96280572727272], [82.78142044762589, 54.96280572727272], [82.78142044762589, 54.971788839022636], [82.7656552622824, 54.971788839022636], [82.7656552622824, 54.98077195077254], [82.7498900769389, 54.98077195077254], [82.7498900769389, 54.99873817427236], [82.7656552622824, 54.99873817427236], [82.7656552622824, 55.007721286022274], [82.78142044762589, 55.007721286022274], [82.78142044762589, 55.02568750952209], [82.79718563296939, 55.02568750952209], [82.79718563296939, 55.03467062127201], [82.81295081831287, 55.03467062127201], [82.81295081831287, 55.04365373302191], [82.82871600365637, 55.04365373302191], [82.82871600365637, 55.06161995652174], [82.81295081831287, 55.06161995652174], [82.81295081831287, 55.070603068271645], [82.79718563296939, 55.070603068271645], [82.79718563296939, 55.10653551527129], [82.81295081831287, 55.10653551527129], [82.81295081831287, 55.12450173877111], [82.89177674503036, 55.12450173877111], [82.89177674503036, 55.133484850521015], [82.90754193037385, 55.133484850521015]]], [[[83.00213304243482, 55.196366632770385], [83.00213304243482, 55.178400409270566], [83.01789822777832, 55.178400409270566], [83.01789822777832, 55.16043418577075], [83.00213304243482, 55.16043418577075], [83.00213304243482, 55.15145107402084], [82.93907230106085, 55.15145107402084], [82.93907230106085, 55.16043418577075], [82.95483748640434, 55.16043418577075], [82.95483748640434, 55.16941729752066], [82.93907230106085, 55.16941729752066], [82.93907230106085, 55.178400409270566], [82.92330711571735, 55.178400409270566], [82.92330711571735, 55.18738352102048], [82.93907230106085, 55.18738352102048], [82.93907230106085, 55.196366632770385], [83.00213304243482, 55.196366632770385]]]]}}, {"type": "Feature", "properties": {"name": "Бердск", "value": 210}, "geometry": {"type": "MultiPolygon", "coordinates": [[[[83.17555008121327, 54.72924482177506], [83.15978489586978, 54.72924482177506], [83.15978489586978, 54.73822793352497], [83.17555008121327, 54.73822793352497], [83.17555008121327, 54.72924482177506]]], [[[83.14401971052628, 54.72924482177506], [83.1282545251828, 54.72924482177506], [83.1282545251828, 54.74721104527488], [83.1124893398393, 54.74721104527488], [83.1124893398393, 54.711278598275236], [83.1282545251828, 54.711278598275236], [83.1282545251828, 54.70229548652533], [83.06519378380881, 54.70229548652533], [83.06519378380881, 54.69331237477542], [83.04942859846531, 54.69331237477542], [83.04942859846531, 54.68432926302551], [83.03366341312181, 54.68432926302551], [83.03366341312181, 54.6753461512756], [83.01789822777832, 54.6753461512756], [83.01789822777832, 54.69331237477542], [83.03366341312181, 54.69331237477542], [83.03366341312181, 54.70229548652533], [83.01789822777832, 54.70229548652533], [83.01789822777832, 54.77416038052461], [83.03366341312181, 54.77416038052461], [83.03366341312181, 54.80110971577434], [83.04942859846531, 54.80110971577434], [83.04942859846531, 54.78314349227452], [83.06519378380881, 54.78314349227452], [83.06519378380881, 54.77416038052461], [83.1124893398393, 54.77416038052461], [83.1124893398393, 54.7651772687747], [83.1282545251828, 54.7651772687747], [83.1282545251828, 54.75619415702479], [83.15978489586978, 54.75619415702479], [83.15978489586978, 54.73822793352497], [83.14401971052628, 54.73822793352497], [83.14401971052628, 54.72924482177506]]], [[[83.17555008121327, 54.77416038052461], [83.14401971052628, 54.77416038052461], [83.14401971052628, 54.78314349227452], [83.17555008121327, 54.78314349227452], [83.17555008121327, 54.77416038052461]]], [[[83.1124893398393, 54.80110971577434], [83.0967241544958, 54.80110971577434], [83.0967241544958, 54.79212660402443], [83.1282545251828, 54.79212660402443], [83.1282545251828, 54.78314349227452], [83.0809589691523, 54.78314349227452], [83.0809589691523, 54.81009282752425], [83.1124893398393, 54.81009282752425], [83.1124893398393, 54.80110971577434]]]]}}, {"type": "Feature", "properties": {"name": "Обь", "value": 216}, "geometry": {"type": "Polygon", "coordinates": [[[82.67106415022141, 55.02568750952209], [82.67106415022141, 55.01670439777219], [82.62376859419093, 55.01670439777219], [82.62376859419093, 55.007721286022274], [82.60800340884744, 55.007721286022274], [82.60800340884744, 54.99873817427236], [82.63953377953443, 54.99873817427236], [82.63953377953443, 54.989755062522455], [82.67106415022141, 54.989755062522455], [82.67106415022141, 54.98077195077254], [82.7341248915954, 54.98077195077254], [82.7341248915954, 54.989755062522455], [82.7498900769389, 54.989755062522455], [82.7498900769389, 54.99873817427236], [82.7183597062519, 54.99873817427236], [82.7183597062519, 55.007721286022274], [82.7025945209084, 55.007721286022274], [82.7025945209084, 55.01670439777219], [82.68682933556491, 55.01670439777219], [82.68682933556491, 55.02568750952209], [82.67106415022141, 55.02568750952209]]]}}, {"type": "Feature", "properties": {"name": "Искитим", "value": 179}, "geometry": {"type": "MultiPolygon", "coordinates": [[[[83.30167156396125, 54.540599475026944], [83.28590637861775, 54.540599475026944], [83.28590637861775, 54.54958258677686], [83.30167156396125, 54.54958258677686], [83.30167156396125, 54.540599475026944]]], [[[83.30167156396125, 54.54958258677686], [83.30167156396125, 54.55856569852676], [83.27014119327426, 54.55856569852676], [83.27014119327426, 54.567548810276676], [83.28590637861775, 54.567548810276676], [83.28590637861775, 54.57653192202659], [83.27014119327426, 54.57653192202659], [83.27014119327426, 54.59449814552641], [83.30167156396125, 54.59449814552641], [83.30167156396125, 54.603481257276314], [83.28590637861775, 54.603481257276314], [83.28590637861775, 54.61246436902623], [83.27014119327426, 54.61246436902623], [83.27014119327426, 54.63941370427596], [83.28590637861775, 54.63941370427596], [83.28590637861775, 54.65737992777578], [83.25437600793076, 54.65737992777578], [83.25437600793076, 54.6753461512756], [83.23861082258726, 54.6753461512756], [83.23861082258726, 54.68432926302551], [83.22284563724376, 54.68432926302551], [83.22284563724376, 54.69331237477542], [83.27014119327426, 54.69331237477542], [83.27014119327426, 54.68432926302551], [83.28590637861775, 54.68432926302551], [83.28590637861775, 54.6753461512756], [83.30167156396125, 54.6753461512756], [83.30167156396125, 54.66636303952569], [83.33320193464823, 54.66636303952569], [83.33320193464823, 54.65737992777578], [83.34896711999173, 54.65737992777578], [83.34896711999173, 54.648396816025866], [83.33320193464823, 54.648396816025866], [83.33320193464823, 54.63941370427596], [83.31743674930473, 54.63941370427596], [83.31743674930473, 54.603481257276314], [83.34896711999173, 54.603481257276314], [83.34896711999173, 54.567548810276676], [83.31743674930473, 54.567548810276676], [83.31743674930473, 54.54958258677686], [83.30167156396125, 54.54958258677686]], [[83.31743674930473, 54.57653192202659], [83.30167156396125, 54.57653192202659], [83.30167156396125, 54.567548810276676], [83.31743674930473, 54.567548810276676], [83.31743674930473, 54.57653192202659]]], [[[83.36473230533522, 54.63941370427596], [83.34896711999173, 54.63941370427596], [83.34896711999173, 54.648396816025866], [83.36473230533522, 54.648396816025866], [83.36473230533522, 54.63941370427596]]]]}}, {"type": "Feature", "properties": {"name": "Куйбышев", "value": 200}, "geometry": {"type": "MultiPolygon", "coordinates": [[[[78.27257743938613, 55.42992753826805], [78.25681225404263, 55.42992753826805], [78.25681225404263, 55.43891065001796], [78.27257743938613, 55.43891065001796], [78.27257743938613, 55.42992753826805]]], [[[78.27257743938613, 55.44789376176787], [78.25681225404263, 55.44789376176787], [78.25681225404263, 55.46585998526769], [78.30410781007312, 55.46585998526769], [78.30410781007312, 55.474843097017605], [78.31987299541662, 55.474843097017605], [78.31987299541662, 55.46585998526769], [78.3356381807601, 55.46585998526769], [78.3356381807601, 55.456876873517785], [78.41446410747758, 55.456876873517785], [78.41446410747758, 55.44789376176787], [78.43022929282108, 55.44789376176787], [78.43022929282108, 55.43891065001796], [78.41446410747758, 55.43891065001796], [78.41446410747758, 55.42992753826805], [78.28834262472962, 55.42992753826805], [78.28834262472962, 55.43891065001796], [78.27257743938613, 55.43891065001796], [78.27257743938613, 55.44789376176787]]]]}}, {"type": "Feature", "properties": {"name": "Барабинск", "value": 178}, "geometry": {"type": "MultiPolygon", "coordinates": [[[[78.30410781007312, 55.34009642076895], [78.28834262472962, 55.34009642076895], [78.28834262472962, 55.349079532518864], [78.30410781007312, 55.349079532518864], [78.30410781007312, 55.34009642076895]]], [[[78.30410781007312, 55.35806264426877], [78.31987299541662, 55.35806264426877], [78.31987299541662, 55.36704575601868], [78.41446410747758, 55.36704575601868], [78.41446410747758, 55.34009642076895], [78.3514033661036, 55.34009642076895], [78.3514033661036, 55.33111330901904], [78.3356381807601, 55.33111330901904], [78.3356381807601, 55.34009642076895], [78.31987299541662, 55.34009642076895], [78.31987299541662, 55.349079532518864], [78.30410781007312, 55.349079532518864], [78.30410781007312, 55.35806264426877]]]]}}, {"type": "Feature", "properties": {"name": "Карасук", "value": 205}, "geometry": {"type": "Polygon", "coordinates": [[[78.02033447389019, 53.75008564103485], [78.02033447389019, 53.741102529284944], [77.98880410320321, 53.741102529284944], [77.98880410320321, 53.73211941753503], [78.02033447389019, 53.73211941753503], [78.02033447389019, 53.71415319403521], [78.06763002992068, 53.71415319403521], [78.06763002992068, 53.72313630578512], [78.08339521526418, 53.72313630578512], [78.08339521526418, 53.73211941753503], [78.06763002992068, 53.73211941753503], [78.06763002992068, 53.75008564103485], [78.02033447389019, 53.75008564103485]]]}}, {"type": "Feature", "properties": {"name": "Татарск", "value": 195}, "geometry": {"type": "Polygon", "coordinates": [[[75.95509519389226, 55.28619775026949], [75.95509519389226, 55.27721463851958], [75.92356482320527, 55.27721463851958], [75.92356482320527, 55.26823152676967], [75.90779963786177, 55.26823152676967], [75.90779963786177, 55.25026530326985], [75.89203445251827, 55.25026530326985], [75.89203445251827, 55.241282191519936], [75.87626926717478, 55.241282191519936], [75.87626926717478, 55.23229907977003], [75.89203445251827, 55.23229907977003], [75.89203445251827, 55.22331596802012], [75.90779963786177, 55.22331596802012], [75.90779963786177, 55.2053497445203], [75.87626926717478, 55.2053497445203], [75.87626926717478, 55.196366632770385], [75.93933000854877, 55.196366632770385], [75.93933000854877, 55.18738352102048], [75.97086037923576, 55.18738352102048], [75.97086037923576, 55.196366632770385], [76.00239074992274, 55.196366632770385], [76.00239074992274, 55.2053497445203], [76.03392112060973, 55.2053497445203], [76.03392112060973, 55.196366632770385], [76.06545149129673, 55.196366632770385], [76.06545149129673, 55.18738352102048], [76.08121667664022, 55.18738352102048], [76.08121667664022, 55.21433285627021], [76.03392112060973, 55.21433285627021], [76.03392112060973, 55.22331596802012], [76.06545149129673, 55.22331596802012], [76.06545149129673, 55.23229907977003], [76.04968630595323, 55.23229907977003], [76.04968630595323, 55.241282191519936], [76.03392112060973, 55.241282191519936], [76.03392112060973, 55.25026530326985], [76.01815593526624, 55.25026530326985], [76.01815593526624, 55.25924841501976], [76.00239074992274, 55.25924841501976], [76.00239074992274, 55.26823152676967], [75.98662556457926, 55.26823152676967], [75.98662556457926, 55.27721463851958], [76.00239074992274, 55.27721463851958], [76.00239074992274, 55.28619775026949], [75.95509519389226, 55.28619775026949]]]}}, {"type": "Feature", "properties": {"name": "Купино", "value": 180}, "geometry": {"type": "Polygon", "coordinates": [[[77.2636055774024, 54.396869687028385], [77.2636055774024, 54.378903463528566], [77.2478403920589, 54.378903463528566], [77.2478403920589, 54.351954128278834], [77.2793707627459, 54.351954128278834], [77.2793707627459, 54.34297101652892], [77.2951359480894, 54.34297101652892], [77.2951359480894, 54.333987904779015], [77.32666631877639, 54.333987904779015], [77.32666631877639, 54.34297101652892], [77.35819668946337, 54.34297101652892], [77.35819668946337, 54.351954128278834], [77.37396187480687, 54.351954128278834], [77.37396187480687, 54.36093724002874], [77.34243150411987, 54.36093724002874], [77.34243150411987, 54.38788657527847], [77.32666631877639, 54.38788657527847], [77.32666631877639, 54.396869687028385], [77.2951359480894, 54.396869687028385], [77.2951359480894, 54.38788657527847], [77.2793707627459, 54.38788657527847], [77.2793707627459, 54.396869687028385], [77.2636055774024, 54.396869687028385]], [[77.32666631877639, 54.36093724002874], [77.34243150411987, 54.36093724002874], [77.34243150411987, 54.351954128278834], [77.32666631877639, 54.351954128278834], [77.32666631877639, 54.36093724002874]]]}}, {"type": "Feature", "properties": {"name": "Черепаново", "value": 180}, "geometry": {"type": "Polygon", "coordinates": [[[83.34896711999173, 54.26212301077973], [83.34896711999173, 54.23517367553], [83.33320193464823, 54.23517367553], [83.33320193464823, 54.226190563780094], [83.31743674930473, 54.226190563780094], [83.31743674930473, 54.21720745203018], [83.33320193464823, 54.21720745203018], [83.33320193464823, 54.20822434028027], [83.34896711999173, 54.20822434028027], [83.34896711999173, 54.19924122853036], [83.39626267602222, 54.19924122853036], [83.39626267602222, 54.20822434028027], [83.41202786136571, 54.20822434028027], [83.41202786136571, 54.23517367553], [83.39626267602222, 54.23517367553], [83.39626267602222, 54.24415678727991], [83.38049749067872, 54.24415678727991], [83.38049749067872, 54.26212301077973], [83.34896711999173, 54.26212301077973]]]}}, {"type": "Feature", "properties": {"name": "Болотное", "value": 178}, "geometry": {"type": "MultiPolygon", "coordinates": [[[[84.35793898197545, 55.645522220265896], [84.34217379663195, 55.645522220265896], [84.34217379663195, 55.65450533201581], [84.35793898197545, 55.65450533201581], [84.35793898197545, 55.645522220265896]]], [[[84.35793898197545, 55.67247155551563], [84.37370416731895, 55.67247155551563], [84.37370416731895, 55.681454667265534], [84.38946935266245, 55.681454667265534], [84.38946935266245, 55.69043777901545], [84.42099972334944, 55.69043777901545], [84.42099972334944, 55.681454667265534], [84.43676490869294, 55.681454667265534], [84.43676490869294, 55.67247155551563], [84.42099972334944, 55.67247155551563], [84.42099972334944, 55.663488443765715], [84.38946935266245, 55.663488443765715], [84.38946935266245, 55.65450533201581], [84.35793898197545, 55.65450533201581], [84.35793898197545, 55.67247155551563]]]]}}, {"type": "Feature", "properties": {"name": "Каргат", "value": 178}, "geometry": {"type": "Polygon", "coordinates": [[[80.29052116335357, 55.21433285627021], [80.29052116335357, 55.2053497445203], [80.24322560732308, 55.2053497445203], [80.24322560732308, 55.196366632770385], [80.22746042197959, 55.196366632770385], [80.22746042197959, 55.18738352102048], [80.27475597801008, 55.18738352102048], [80.27475597801008, 55.178400409270566], [80.30628634869707, 55.178400409270566], [80.30628634869707, 55.2053497445203], [80.32205153404055, 55.2053497445203], [80.32205153404055, 55.21433285627021], [80.29052116335357, 55.21433285627021]]]}}, {"type": "Feature", "properties": {"name": "Чулым", "value": 173}, "geometry": {"type": "MultiPolygon", "coordinates": [[[[80.98418931846737, 55.12450173877111], [80.98418931846737, 55.09755240352138], [80.99995450381087, 55.09755240352138], [80.99995450381087, 55.088569291771464], [80.98418931846737, 55.088569291771464], [80.98418931846737, 55.070603068271645], [80.95265894778039, 55.070603068271645], [80.95265894778039, 55.06161995652174], [80.9368937624369, 55.06161995652174], [80.9368937624369, 55.088569291771464], [80.9211285770934, 55.088569291771464], [80.9211285770934, 55.10653551527129], [80.95265894778039, 55.10653551527129], [80.95265894778039, 55.115518627021196], [80.96842413312389, 55.115518627021196], [80.96842413312389, 55.12450173877111], [80.98418931846737, 55.12450173877111]]], [[[80.79500709434544, 55.115518627021196], [80.79500709434544, 55.10653551527129], [80.77924190900194, 55.10653551527129], [80.77924190900194, 55.115518627021196], [80.79500709434544, 55.115518627021196]]]]}}, {"type": "Feature", "properties": {"name": "Тогучин", "value": 171}, "geometry": {"type": "Polygon", "coordinates": [[[84.37370416731895, 55.25924841501976], [84.37370416731895, 55.25026530326985], [84.35793898197545, 55.25026530326985], [84.35793898197545, 55.22331596802012], [84.38946935266245, 55.22331596802012], [84.38946935266245, 55.21433285627021], [84.42099972334944, 55.21433285627021], [84.42099972334944, 55.22331596802012], [84.43676490869294, 55.22331596802012], [84.43676490869294, 55.241282191519936], [84.42099972334944, 55.241282191519936], [84.42099972334944, 55.25026530326985], [84.43676490869294, 55.25026530326985], [84.43676490869294, 55.25924841501976], [84.37370416731895, 55.25924841501976]]]}}]}