{"type": "FeatureCollection", "features": [{"type": "Feature", "properties": {"name": "Новосибирск", "value": 223}, "geometry": {"type": "MultiPolygon", "coordinates": [[[[83.1124893398393, 54.908907056773266], [83.1124893398393, 54.91789016852317], [83.1282545251828, 54.91789016852317], [83.1282545251828, 54.89992394502335], [83.0967241544958, 54.89992394502335], [83.0967241544958, 54.908907056773266], [83.1124893398393, 54.908907056773266]]], [[[82.84448118899986, 54.908907056773266], [82.84448118899986, 54.89992394502335], [82.81295081831287, 54.89992394502335], [82.81295081831287, 54.926873280273085], [82.84448118899986, 54.926873280273085], [82.84448118899986, 54.91789016852317], [82.86024637434336, 54.91789016852317], [82.86024637434336, 54.908907056773266], [82.84448118899986, 54.908907056773266]]], [[[82.79718563296939, 55.02568750952209], [82.79718563296939, 55.03467062127201], [82.81295081831287, 55.03467062127201], [82.81295081831287, 55.02568750952209], [82.79718563296939, 55.02568750952209]]], [[[82.86024637434336, 55.14246796227093], [82.84448118899986, 55.14246796227093], [82.84448118899986, 55.16043418577075], [82.87601155968686, 55.16043418577075], [82.87601155968686, 55.15145107402084], [82.90754193037385, 55.15145107402084], [82.90754193037385, 55.16043418577075], [82.93907230106085, 55.16043418577075], [82.93907230106085, 55.16941729752066], [82.90754193037385, 55.16941729752066], [82.90754193037385, 55.178400409270566], [82.93907230106085, 55.178400409270566], [82.93907230106085, 55.18738352102048], [82.97060267174784, 55.18738352102048], [82.97060267174784, 55.178400409270566], [83.00213304243482, 55.178400409270566], [83.00213304243482, 55.15145107402084], [82.98636785709132, 55.15145107402084], [82.98636785709132, 55.070603068271645], [83.00213304243482, 55.070603068271645], [83.00213304243482, 55.07958618002156], [83.03366341312181, 55.07958618002156], [83.03366341312181, 55.088569291771464], [83.01789822777832, 55.088569291771464], [83.01789822777832, 55.09755240352138], [83.03366341312181, 55.09755240352138], [83.03366341312181, 55.115518627021196], [83.00213304243482, 55.115518627021196], [83.00213304243482, 55.12450173877111], [83.01789822777832, 55.12450173877111], [83.01789822777832, 55.133484850521015], [83.06519378380881, 55.133484850521015], [83.06519378380881, 55.10653551527129], [83.0967241544958, 55.10653551527129], [83.0967241544958, 55.07958618002156], [83.0809589691523, 55.07958618002156], [83.0809589691523, 55.088569291771464], [83.06519378380881, 55.088569291771464], [83.06519378380881, 55.070603068271645], [83.0809589691523, 55.070603068271645], [83.0809589691523, 55.02568750952209], [83.06519378380881, 55.02568750952209], [83.06519378380881, 55.052636844771826], [83.04942859846531, 55.052636844771826], [83.04942859846531, 55.04365373302191], [83.03366341312181, 55.04365373302191], [83.03366341312181, 55.007721286022274], [83.04942859846531, 55.007721286022274], [83.04942859846531, 54.989755062522455], [83.0809589691523, 54.989755062522455], [83.0809589691523, 55.007721286022274], [83.0967241544958, 55.007721286022274], [83.0967241544958, 54.99873817427236], [83.1124893398393, 54.99873817427236], [83.1124893398393, 54.989755062522455], [83.15978489586978, 54.989755062522455], [83.15978489586978, 54.96280572727272], [83.17555008121327, 54.96280572727272], [83.17555008121327, 54.971788839022636], [83.19131526655677, 54.971788839022636], [83.19131526655677, 54.98077195077254], [83.20708045190027, 54.98077195077254], [83.20708045190027, 54.99873817427236], [83.22284563724376, 54.99873817427236], [83.22284563724376, 54.98077195077254], [83.23861082258726, 54.98077195077254], [83.23861082258726, 54.971788839022636], [83.27014119327426, 54.971788839022636], [83.27014119327426, 54.96280572727272], [83.25437600793076, 54.96280572727272], [83.25437600793076, 54.95382261552281], [83.22284563724376, 54.95382261552281], [83.22284563724376, 54.926873280273085], [83.20708045190027, 54.926873280273085], [83.20708045190027, 54.91789016852317], [83.17555008121327, 54.91789016852317], [83.17555008121327, 54.926873280273085], [83.15978489586978, 54.926873280273085], [83.15978489586978, 54.93585639202299], [83.1282545251828, 54.93585639202299], [83.1282545251828, 54.926873280273085], [83.0967241544958, 54.926873280273085], [83.0967241544958, 54.91789016852317], [83.0809589691523, 54.91789016852317], [83.0809589691523, 54.908907056773266], [83.04942859846531, 54.908907056773266], [83.04942859846531, 54.926873280273085], [83.06519378380881, 54.926873280273085], [83.06519378380881, 54.93585639202299], [83.04942859846531, 54.93585639202299], [83.04942859846531, 54.96280572727272], [83.03366341312181, 54.96280572727272], [83.03366341312181, 54.99873817427236], [83.01789822777832, 54.99873817427236], [83.01789822777832, 54.98077195077254], [83.00213304243482, 54.98077195077254], [83.00213304243482, 54.96280572727272], [82.98636785709132, 54.96280572727272], [82.98636785709132, 54.95382261552281], [83.01789822777832, 54.95382261552281], [83.01789822777832, 54.93585639202299], [83.00213304243482, 54.93585639202299], [83.00213304243482, 54.926873280273085], [83.03366341312181, 54.926873280273085], [83.03366341312181, 54.89094083327344], [83.04942859846531, 54.89094083327344], [83.04942859846531, 54.881957721523534], [83.00213304243482, 54.881957721523534], [83.00213304243482, 54.89094083327344], [82.97060267174784, 54.89094083327344], [82.97060267174784, 54.91789016852317], [82.95483748640434, 54.91789016852317], [82.95483748640434, 54.93585639202299], [82.93907230106085, 54.93585639202299], [82.93907230106085, 54.91789016852317], [82.90754193037385, 54.91789016852317], [82.90754193037385, 54.926873280273085], [82.86024637434336, 54.926873280273085], [82.86024637434336, 54.944839503772904], [82.84448118899986, 54.944839503772904], [82.84448118899986, 54.93585639202299], [82.82871600365637, 54.93585639202299], [82.82871600365637, 54.95382261552281], [82.81295081831287, 54.95382261552281], [82.81295081831287, 54.99873817427236], [82.87601155968686, 54.99873817427236], [82.87601155968686, 55.007721286022274], [82.81295081831287, 55.007721286022274], [82.81295081831287, 55.02568750952209], [82.82871600365637, 55.02568750952209], [82.82871600365637, 55.052636844771826], [82.87601155968686, 55.052636844771826], [82.87601155968686, 55.06161995652174], [82.86024637434336, 55.06161995652174], [82.86024637434336, 55.09755240352138], [82.89177674503036, 55.09755240352138], [82.89177674503036, 55.115518627021196], [82.87601155968686, 55.115518627021196], [82.87601155968686, 55.133484850521015], [82.86024637434336, 55.133484850521015], [82.86024637434336, 55.14246796227093]], [[83.04942859846531, 55.06161995652174], [83.03366341312181, 55.06161995652174], [83.03366341312181, 55.052636844771826], [83.04942859846531, 55.052636844771826], [83.04942859846531, 55.06161995652174]], [[83.03366341312181, 55.070603068271645], [83.01789822777832, 55.070603068271645], [83.01789822777832, 55.06161995652174], [83.03366341312181, 55.06161995652174], [83.03366341312181, 55.070603068271645]], [[82.87601155968686, 54.944839503772904], [82.87601155968686, 54.95382261552281], [82.86024637434336, 54.95382261552281], [82.86024637434336, 54.944839503772904], [82.87601155968686, 54.944839503772904]], [[82.89177674503036, 55.088569291771464], [82.92330711571735, 55.088569291771464], [82.92330711571735, 55.09755240352138], [82.89177674503036, 55.09755240352138], [82.89177674503036, 55.088569291771464]], [[82.90754193037385, 55.12450173877111], [82.92330711571735, 55.12450173877111], [82.92330711571735, 55.133484850521015], [82.90754193037385, 55.133484850521015], [82.90754193037385, 55.12450173877111]], [[82.95483748640434, 55.088569291771464], [82.97060267174784, 55.088569291771464], [82.97060267174784, 55.09755240352138], [82.95483748640434, 55.09755240352138], [82.95483748640434, 55.088569291771464]], [[82.95483748640434, 54.989755062522455], [82.93907230106085, 54.989755062522455], [82.93907230106085, 54.98077195077254], [82.95483748640434, 54.98077195077254], [82.95483748640434, 54.989755062522455]], [[82.95483748640434, 54.971788839022636], [82.97060267174784, 54.971788839022636], [82.97060267174784, 54.98077195077254], [82.95483748640434, 54.98077195077254], [82.95483748640434, 54.971788839022636]], [[83.0809589691523, 54.971788839022636], [83.06519378380881, 54.971788839022636], [83.06519378380881, 54.96280572727272], [83.0809589691523, 54.96280572727272], [83.0809589691523, 54.971788839022636]], [[83.0809589691523, 54.944839503772904], [83.0967241544958, 54.944839503772904], [83.0967241544958, 54.96280572727272], [83.0809589691523, 54.96280572727272], [83.0809589691523, 54.944839503772904]], [[82.92330711571735, 54.95382261552281], [82.90754193037385, 54.95382261552281], [82.90754193037385, 54.96280572727272], [82.89177674503036, 54.96280572727272], [82.89177674503036, 54.944839503772904], [82.93907230106085, 54.944839503772904], [82.93907230106085, 54.96280572727272], [82.92330711571735, 54.96280572727272], [82.92330711571735, 54.95382261552281]], [[83.00213304243482, 54.89992394502335], [83.01789822777832, 54.89992394502335], [83.01789822777832, 54.908907056773266], [83.00213304243482, 54.908907056773266], [83.00213304243482, 54.89992394502335]]], [[[83.1282545251828, 55.052636844771826], [83.1282545251828, 55.04365373302191], [83.1124893398393, 55.04365373302191], [83.1124893398393, 55.052636844771826], [83.0967241544958, 55.052636844771826], [83.0967241544958, 55.070603068271645], [83.14401971052628, 55.070603068271645], [83.14401971052628, 55.06161995652174], [83.15978489586978, 55.06161995652174], [83.15978489586978, 55.052636844771826], [83.1282545251828, 55.052636844771826]]], [[[82.79718563296939, 55.06161995652174], [82.79718563296939, 55.115518627021196], [82.81295081831287, 55.115518627021196], [82.81295081831287, 55.12450173877111], [82.84448118899986, 55.12450173877111], [82.84448118899986, 55.115518627021196], [82.82871600365637, 55.115518627021196], [82.82871600365637, 55.06161995652174], [82.79718563296939, 55.06161995652174]]], [[[83.17555008121327, 55.16043418577075], [83.17555008121327, 55.133484850521015], [83.1282545251828, 55.133484850521015], [83.1282545251828, 55.12450173877111], [83.0967241544958, 55.12450173877111], [83.0967241544958, 55.16941729752066], [83.14401971052628, 55.16941729752066], [83.14401971052628, 55.178400409270566], [83.15978489586978, 55.178400409270566], [83.15978489586978, 55.18738352102048], [83.19131526655677, 55.18738352102048], [83.19131526655677, 55.178400409270566], [83.20708045190027, 55.178400409270566], [83.20708045190027, 55.16043418577075], [83.17555008121327, 55.16043418577075]]], [[[82.89177674503036, 55.18738352102048], [82.89177674503036, 55.178400409270566], [82.87601155968686, 55.178400409270566], [82.87601155968686, 55.18738352102048], [82.89177674503036, 55.18738352102048]]], [[[83.0809589691523, 55.178400409270566], [83.0809589691523, 55.16941729752066], [83.06519378380881, 55.16941729752066], [83.06519378380881, 55.18738352102048], [83.0809589691523, 55.18738352102048], [83.0809589691523, 55.2053497445203], [83.0967241544958, 55.2053497445203], [83.0967241544958, 55.18738352102048], [83.1124893398393, 55.18738352102048], [83.1124893398393, 55.178400409270566], [83.0809589691523, 55.178400409270566]]], [[[83.1282545251828, 55.18738352102048], [83.1282545251828, 55.2053497445203], [83.14401971052628, 55.2053497445203], [83.14401971052628, 55.196366632770385], [83.15978489586978, 55.196366632770385], [83.15978489586978, 55.18738352102048], [83.1282545251828, 55.18738352102048]]], [[[82.92330711571735, 55.22331596802012], [82.92330711571735, 55.21433285627021], [82.89177674503036, 55.21433285627021], [82.89177674503036, 55.22331596802012], [82.90754193037385, 55.22331596802012], [82.90754193037385, 55.23229907977003], [82.92330711571735, 55.23229907977003], [82.92330711571735, 55.241282191519936], [82.93907230106085, 55.241282191519936], [82.93907230106085, 55.25026530326985], [82.97060267174784, 55.25026530326985], [82.97060267174784, 55.2053497445203], [82.93907230106085, 55.2053497445203], [82.93907230106085, 55.22331596802012], [82.92330711571735, 55.22331596802012]]], [[[83.0809589691523, 55.241282191519936], [83.0809589691523, 55.22331596802012], [83.04942859846531, 55.22331596802012], [83.04942859846531, 55.241282191519936], [83.0809589691523, 55.241282191519936]]], [[[82.87601155968686, 55.241282191519936], [82.87601155968686, 55.25924841501976], [82.90754193037385, 55.25924841501976], [82.90754193037385, 55.25026530326985], [82.89177674503036, 55.25026530326985], [82.89177674503036, 55.241282191519936], [82.87601155968686, 55.241282191519936]]], [[[83.19131526655677, 55.27721463851958], [83.19131526655677, 55.25924841501976], [83.17555008121327, 55.25924841501976], [83.17555008121327, 55.27721463851958], [83.19131526655677, 55.27721463851958]]], [[[82.90754193037385, 55.30416397376931], [82.90754193037385, 55.28619775026949], [82.87601155968686, 55.28619775026949], [82.87601155968686, 55.30416397376931], [82.90754193037385, 55.30416397376931]]], [[[82.84448118899986, 55.32213019726913], [82.84448118899986, 55.33111330901904], [82.87601155968686, 55.33111330901904], [82.87601155968686, 55.31314708551922], [82.86024637434336, 55.31314708551922], [82.86024637434336, 55.32213019726913], [82.84448118899986, 55.32213019726913]]], [[[82.7498900769389, 55.30416397376931], [82.7498900769389, 55.33111330901904], [82.7656552622824, 55.33111330901904], [82.7656552622824, 55.35806264426877], [82.79718563296939, 55.35806264426877], [82.79718563296939, 55.34009642076895], [82.78142044762589, 55.34009642076895], [82.78142044762589, 55.30416397376931], [82.7498900769389, 55.30416397376931]]], [[[83.28590637861775, 54.96280572727272], [83.28590637861775, 54.944839503772904], [83.27014119327426, 54.944839503772904], [83.27014119327426, 54.96280572727272], [83.28590637861775, 54.96280572727272]]], [[[83.38049749067872, 54.971788839022636], [83.38049749067872, 54.95382261552281], [83.36473230533522, 54.95382261552281], [83.36473230533522, 54.971788839022636], [83.38049749067872, 54.971788839022636]]], [[[83.34896711999173, 54.98077195077254], [83.34896711999173, 54.971788839022636], [83.33320193464823, 54.971788839022636], [83.33320193464823, 54.98077195077254], [83.31743674930473, 54.98077195077254], [83.31743674930473, 55.007721286022274], [83.34896711999173, 55.007721286022274], [83.34896711999173, 54.99873817427236], [83.36473230533522, 54.99873817427236], [83.36473230533522, 54.98077195077254], [83.34896711999173, 54.98077195077254]]], [[[83.33320193464823, 55.01670439777219], [83.33320193464823, 55.03467062127201], [83.36473230533522, 55.03467062127201], [83.36473230533522, 55.02568750952209], [83.38049749067872, 55.02568750952209], [83.38049749067872, 55.01670439777219], [83.33320193464823, 55.01670439777219]]], [[[83.25437600793076, 55.04365373302191], [83.25437600793076, 55.03467062127201], [83.22284563724376, 55.03467062127201], [83.22284563724376, 55.04365373302191], [83.25437600793076, 55.04365373302191]]], [[[83.47508860273969, 55.06161995652174], [83.47508860273969, 55.04365373302191], [83.4593234173962, 55.04365373302191], [83.4593234173962, 55.03467062127201], [83.44355823205271, 55.03467062127201], [83.44355823205271, 55.02568750952209], [83.39626267602222, 55.02568750952209], [83.39626267602222, 55.04365373302191], [83.41202786136571, 55.04365373302191], [83.41202786136571, 55.052636844771826], [83.44355823205271, 55.052636844771826], [83.44355823205271, 55.06161995652174], [83.42779304670921, 55.06161995652174], [83.42779304670921, 55.070603068271645], [83.4593234173962, 55.070603068271645], [83.4593234173962, 55.07958618002156], [83.47508860273969, 55.07958618002156], [83.47508860273969, 55.070603068271645], [83.49085378808319, 55.070603068271645], [83.49085378808319, 55.06161995652174], [83.47508860273969, 55.06161995652174]]], [[[83.38049749067872, 55.052636844771826], [83.38049749067872, 55.06161995652174], [83.36473230533522, 55.06161995652174], [83.36473230533522, 55.070603068271645], [83.41202786136571, 55.070603068271645], [83.41202786136571, 55.06161995652174], [83.39626267602222, 55.06161995652174], [83.39626267602222, 55.052636844771826], [83.38049749067872, 55.052636844771826]]], [[[83.25437600793076, 55.07958618002156], [83.25437600793076, 55.052636844771826], [83.23861082258726, 55.052636844771826], [83.23861082258726, 55.070603068271645], [83.22284563724376, 55.070603068271645], [83.22284563724376, 55.07958618002156], [83.20708045190027, 55.07958618002156], [83.20708045190027, 55.070603068271645], [83.19131526655677, 55.070603068271645], [83.19131526655677, 55.088569291771464], [83.23861082258726, 55.088569291771464], [83.23861082258726, 55.09755240352138], [83.25437600793076, 55.09755240352138], [83.25437600793076, 55.10653551527129], [83.27014119327426, 55.10653551527129], [83.27014119327426, 55.115518627021196], [83.28590637861775, 55.115518627021196], [83.28590637861775, 55.09755240352138], [83.27014119327426, 55.09755240352138], [83.27014119327426, 55.07958618002156], [83.25437600793076, 55.07958618002156]]], [[[83.27014119327426, 55.133484850521015], [83.27014119327426, 55.12450173877111], [83.25437600793076, 55.12450173877111], [83.25437600793076, 55.133484850521015], [83.27014119327426, 55.133484850521015]]], [[[83.27014119327426, 55.178400409270566], [83.27014119327426, 55.16043418577075], [83.22284563724376, 55.16043418577075], [83.22284563724376, 55.178400409270566], [83.27014119327426, 55.178400409270566]]], [[[83.38049749067872, 55.2053497445203], [83.38049749067872, 55.18738352102048], [83.34896711999173, 55.18738352102048], [83.34896711999173, 55.2053497445203], [83.38049749067872, 55.2053497445203]]], [[[83.30167156396125, 55.2053497445203], [83.30167156396125, 55.196366632770385], [83.27014119327426, 55.196366632770385], [83.27014119327426, 55.2053497445203], [83.30167156396125, 55.2053497445203]]], [[[83.41202786136571, 55.196366632770385], [83.41202786136571, 55.22331596802012], [83.42779304670921, 55.22331596802012], [83.42779304670921, 55.21433285627021], [83.44355823205271, 55.21433285627021], [83.44355823205271, 55.196366632770385], [83.41202786136571, 55.196366632770385]]], [[[83.20708045190027, 55.21433285627021], [83.20708045190027, 55.22331596802012], [83.22284563724376, 55.22331596802012], [83.22284563724376, 55.2053497445203], [83.19131526655677, 55.2053497445203], [83.19131526655677, 55.21433285627021], [83.20708045190027, 55.21433285627021]]], [[[83.34896711999173, 55.241282191519936], [83.33320193464823, 55.241282191519936], [83.33320193464823, 55.26823152676967], [83.34896711999173, 55.26823152676967], [83.34896711999173, 55.25924841501976], [83.36473230533522, 55.25924841501976], [83.36473230533522, 55.25026530326985], [83.34896711999173, 55.25026530326985], [83.34896711999173, 55.241282191519936]]], [[[83.42779304670921, 55.33111330901904], [83.44355823205271, 55.33111330901904], [83.44355823205271, 55.32213019726913], [83.4593234173962, 55.32213019726913], [83.4593234173962, 55.30416397376931], [83.42779304670921, 55.30416397376931], [83.42779304670921, 55.33111330901904]]]]}}, {"type": "Feature", "properties": {"name": "Бердск", "value": 210}, "geometry": {"type": "MultiPolygon", "coordinates": [[[[82.98636785709132, 54.6753461512756], [82.95483748640434, 54.6753461512756], [82.95483748640434, 54.66636303952569], [82.93907230106085, 54.66636303952569], [82.93907230106085, 54.69331237477542], [82.97060267174784, 54.69331237477542], [82.97060267174784, 54.68432926302551], [82.98636785709132, 54.68432926302551], [82.98636785709132, 54.6753461512756]]], [[[82.63953377953443, 54.6753461512756], [82.60800340884744, 54.6753461512756], [82.60800340884744, 54.70229548652533], [82.65529896487791, 54.70229548652533], [82.65529896487791, 54.68432926302551], [82.63953377953443, 54.68432926302551], [82.63953377953443, 54.6753461512756]]], [[[83.15978489586978, 54.68432926302551], [83.1282545251828, 54.68432926302551], [83.1282545251828, 54.70229548652533], [83.14401971052628, 54.70229548652533], [83.14401971052628, 54.69331237477542], [83.15978489586978, 54.69331237477542], [83.15978489586978, 54.68432926302551]]], [[[83.00213304243482, 54.70229548652533], [83.01789822777832, 54.70229548652533], [83.01789822777832, 54.69331237477542], [83.00213304243482, 54.69331237477542], [83.00213304243482, 54.70229548652533]]], [[[83.01789822777832, 54.77416038052461], [83.03366341312181, 54.77416038052461], [83.03366341312181, 54.7651772687747], [83.01789822777832, 54.7651772687747], [83.01789822777832, 54.77416038052461]]], [[[83.03366341312181, 54.881957721523534], [83.03366341312181, 54.89094083327344], [83.06519378380881, 54.89094083327344], [83.06519378380881, 54.89992394502335], [83.0967241544958, 54.89992394502335], [83.0967241544958, 54.908907056773266], [83.1282545251828, 54.908907056773266], [83.1282545251828, 54.89094083327344], [83.1124893398393, 54.89094083327344], [83.1124893398393, 54.881957721523534], [83.0809589691523, 54.881957721523534], [83.0809589691523, 54.87297460977362], [83.1124893398393, 54.87297460977362], [83.1124893398393, 54.863991498023715], [83.1282545251828, 54.863991498023715], [83.1282545251828, 54.881957721523534], [83.14401971052628, 54.881957721523534], [83.14401971052628, 54.87297460977362], [83.15978489586978, 54.87297460977362], [83.15978489586978, 54.863991498023715], [83.14401971052628, 54.863991498023715], [83.14401971052628, 54.8550083862738], [83.1124893398393, 54.8550083862738], [83.1124893398393, 54.84602527452389], [83.14401971052628, 54.84602527452389], [83.14401971052628, 54.83704216277398], [83.1282545251828, 54.83704216277398], [83.1282545251828, 54.82805905102407], [83.1124893398393, 54.82805905102407], [83.1124893398393, 54.77416038052461], [83.1282545251828, 54.77416038052461], [83.1282545251828, 54.7651772687747], [83.20708045190027, 54.7651772687747], [83.20708045190027, 54.77416038052461], [83.22284563724376, 54.77416038052461], [83.22284563724376, 54.78314349227452], [83.25437600793076, 54.78314349227452], [83.25437600793076, 54.75619415702479], [83.19131526655677, 54.75619415702479], [83.19131526655677, 54.74721104527488], [83.20708045190027, 54.74721104527488], [83.20708045190027, 54.72026171002515], [83.22284563724376, 54.72026171002515], [83.22284563724376, 54.70229548652533], [83.19131526655677, 54.70229548652533], [83.19131526655677, 54.72924482177506], [83.15978489586978, 54.72924482177506], [83.15978489586978, 54.74721104527488], [83.1282545251828, 54.74721104527488], [83.1282545251828, 54.72924482177506], [83.1124893398393, 54.72924482177506], [83.1124893398393, 54.72026171002515], [83.0967241544958, 54.72026171002515], [83.0967241544958, 54.711278598275236], [83.0809589691523, 54.711278598275236], [83.0809589691523, 54.70229548652533], [83.04942859846531, 54.70229548652533], [83.04942859846531, 54.72924482177506], [83.03366341312181, 54.72924482177506], [83.03366341312181, 54.75619415702479], [83.04942859846531, 54.75619415702479], [83.04942859846531, 54.7651772687747], [83.06519378380881, 54.7651772687747], [83.06519378380881, 54.77416038052461], [83.04942859846531, 54.77416038052461], [83.04942859846531, 54.78314349227452], [83.03366341312181, 54.78314349227452], [83.03366341312181, 54.80110971577434], [83.06519378380881, 54.80110971577434], [83.06519378380881, 54.79212660402443], [83.0809589691523, 54.79212660402443], [83.0809589691523, 54.83704216277398], [83.03366341312181, 54.83704216277398], [83.03366341312181, 54.8550083862738], [83.06519378380881, 54.8550083862738], [83.06519378380881, 54.863991498023715], [83.04942859846531, 54.863991498023715], [83.04942859846531, 54.881957721523534], [83.03366341312181, 54.881957721523534]], [[83.0967241544958, 54.72924482177506], [83.0809589691523, 54.72924482177506], [83.0809589691523, 54.72026171002515], [83.0967241544958, 54.72026171002515], [83.0967241544958, 54.72924482177506]], [[83.06519378380881, 54.84602527452389], [83.0809589691523, 54.84602527452389], [83.0809589691523, 54.8550083862738], [83.06519378380881, 54.8550083862738], [83.06519378380881, 54.84602527452389]], [[83.0809589691523, 54.78314349227452], [83.0809589691523, 54.77416038052461], [83.0967241544958, 54.77416038052461], [83.0967241544958, 54.78314349227452], [83.0809589691523, 54.78314349227452]]], [[[83.14401971052628, 54.81009282752425], [83.15978489586978, 54.81009282752425], [83.15978489586978, 54.80110971577434], [83.14401971052628, 54.80110971577434], [83.14401971052628, 54.81009282752425]]], [[[82.92330711571735, 54.82805905102407], [82.92330711571735, 54.819075939274164], [82.87601155968686, 54.819075939274164], [82.87601155968686, 54.81009282752425], [82.84448118899986, 54.81009282752425], [82.84448118899986, 54.80110971577434], [82.82871600365637, 54.80110971577434], [82.82871600365637, 54.82805905102407], [82.84448118899986, 54.82805905102407], [82.84448118899986, 54.83704216277398], [82.87601155968686, 54.83704216277398], [82.87601155968686, 54.82805905102407], [82.89177674503036, 54.82805905102407], [82.89177674503036, 54.83704216277398], [82.90754193037385, 54.83704216277398], [82.90754193037385, 54.84602527452389], [82.92330711571735, 54.84602527452389], [82.92330711571735, 54.83704216277398], [82.93907230106085, 54.83704216277398], [82.93907230106085, 54.82805905102407], [82.92330711571735, 54.82805905102407]]], [[[82.98636785709132, 54.8550083862738], [82.98636785709132, 54.84602527452389], [82.95483748640434, 54.84602527452389], [82.95483748640434, 54.8550083862738], [82.93907230106085, 54.8550083862738], [82.93907230106085, 54.87297460977362], [82.98636785709132, 54.87297460977362], [82.98636785709132, 54.881957721523534], [83.01789822777832, 54.881957721523534], [83.01789822777832, 54.863991498023715], [83.00213304243482, 54.863991498023715], [83.00213304243482, 54.8550083862738], [82.98636785709132, 54.8550083862738]]], [[[83.14401971052628, 54.78314349227452], [83.1282545251828, 54.78314349227452], [83.1282545251828, 54.79212660402443], [83.17555008121327, 54.79212660402443], [83.17555008121327, 54.77416038052461], [83.14401971052628, 54.77416038052461], [83.14401971052628, 54.78314349227452]]], [[[83.39626267602222, 54.81009282752425], [83.38049749067872, 54.81009282752425], [83.38049749067872, 54.82805905102407], [83.39626267602222, 54.82805905102407], [83.39626267602222, 54.83704216277398], [83.41202786136571, 54.83704216277398], [83.41202786136571, 54.80110971577434], [83.39626267602222, 54.80110971577434], [83.39626267602222, 54.81009282752425]]], [[[83.20708045190027, 54.84602527452389], [83.22284563724376, 54.84602527452389], [83.22284563724376, 54.8550083862738], [83.23861082258726, 54.8550083862738], [83.23861082258726, 54.82805905102407], [83.22284563724376, 54.82805905102407], [83.22284563724376, 54.83704216277398], [83.17555008121327, 54.83704216277398], [83.17555008121327, 54.82805905102407], [83.19131526655677, 54.82805905102407], [83.19131526655677, 54.819075939274164], [83.20708045190027, 54.819075939274164], [83.20708045190027, 54.81009282752425], [83.17555008121327, 54.81009282752425], [83.17555008121327, 54.819075939274164], [83.15978489586978, 54.819075939274164], [83.15978489586978, 54.84602527452389], [83.17555008121327, 54.84602527452389], [83.17555008121327, 54.863991498023715], [83.19131526655677, 54.863991498023715], [83.19131526655677, 54.8550083862738], [83.20708045190027, 54.8550083862738], [83.20708045190027, 54.84602527452389]]], [[[83.25437600793076, 54.8550083862738], [83.28590637861775, 54.8550083862738], [83.28590637861775, 54.84602527452389], [83.25437600793076, 54.84602527452389], [83.25437600793076, 54.8550083862738]]], [[[83.47508860273969, 54.881957721523534], [83.50661897342668, 54.881957721523534], [83.50661897342668, 54.863991498023715], [83.47508860273969, 54.863991498023715], [83.47508860273969, 54.881957721523534]]], [[[83.15978489586978, 54.908907056773266], [83.19131526655677, 54.908907056773266], [83.19131526655677, 54.89992394502335], [83.15978489586978, 54.89992394502335], [83.15978489586978, 54.908907056773266]]], [[[83.47508860273969, 54.91789016852317], [83.49085378808319, 54.91789016852317], [83.49085378808319, 54.908907056773266], [83.47508860273969, 54.908907056773266], [83.47508860273969, 54.91789016852317]]], [[[83.27014119327426, 54.926873280273085], [83.27014119327426, 54.944839503772904], [83.30167156396125, 54.944839503772904], [83.30167156396125, 54.93585639202299], [83.31743674930473, 54.93585639202299], [83.31743674930473, 54.926873280273085], [83.27014119327426, 54.926873280273085]]], [[[83.38049749067872, 54.96280572727272], [83.38049749067872, 54.95382261552281], [83.36473230533522, 54.95382261552281], [83.36473230533522, 54.96280572727272], [83.38049749067872, 54.96280572727272]]]]}}, {"type": "Feature", "properties": {"name": "Обь", "value": 216}, "geometry": {"type": "MultiPolygon", "coordinates": [[[[82.52917748212995, 54.711278598275236], [82.56070785281695, 54.711278598275236], [82.56070785281695, 54.69331237477542], [82.52917748212995, 54.69331237477542], [82.52917748212995, 54.711278598275236]]], [[[82.41882118472549, 54.70229548652533], [82.41882118472549, 54.72026171002515], [82.40305599938199, 54.72026171002515], [82.40305599938199, 54.72924482177506], [82.45035155541248, 54.72924482177506], [82.45035155541248, 54.711278598275236], [82.43458637006898, 54.711278598275236], [82.43458637006898, 54.70229548652533], [82.41882118472549, 54.70229548652533]]], [[[82.54494266747345, 54.82805905102407], [82.54494266747345, 54.83704216277398], [82.52917748212995, 54.83704216277398], [82.52917748212995, 54.84602527452389], [82.57647303816044, 54.84602527452389], [82.57647303816044, 54.83704216277398], [82.56070785281695, 54.83704216277398], [82.56070785281695, 54.82805905102407], [82.54494266747345, 54.82805905102407]]], [[[82.52917748212995, 54.89094083327344], [82.51341229678646, 54.89094083327344], [82.51341229678646, 54.881957721523534], [82.49764711144296, 54.881957721523534], [82.49764711144296, 54.89094083327344], [82.48188192609946, 54.89094083327344], [82.48188192609946, 54.908907056773266], [82.51341229678646, 54.908907056773266], [82.51341229678646, 54.89992394502335], [82.52917748212995, 54.89992394502335], [82.52917748212995, 54.89094083327344]]], [[[82.48188192609946, 54.95382261552281], [82.48188192609946, 54.971788839022636], [82.51341229678646, 54.971788839022636], [82.51341229678646, 54.96280572727272], [82.49764711144296, 54.96280572727272], [82.49764711144296, 54.95382261552281], [82.48188192609946, 54.95382261552281]]], [[[82.57647303816044, 54.971788839022636], [82.57647303816044, 54.95382261552281], [82.54494266747345, 54.95382261552281], [82.54494266747345, 54.971788839022636], [82.57647303816044, 54.971788839022636]]], [[[82.49764711144296, 54.99873817427236], [82.52917748212995, 54.99873817427236], [82.52917748212995, 55.007721286022274], [82.54494266747345, 55.007721286022274], [82.54494266747345, 54.989755062522455], [82.49764711144296, 54.989755062522455], [82.49764711144296, 54.99873817427236]]], [[[82.48188192609946, 55.01670439777219], [82.48188192609946, 54.99873817427236], [82.46611674075598, 54.99873817427236], [82.46611674075598, 54.989755062522455], [82.45035155541248, 54.989755062522455], [82.45035155541248, 54.98077195077254], [82.41882118472549, 54.98077195077254], [82.41882118472549, 55.007721286022274], [82.43458637006898, 55.007721286022274], [82.43458637006898, 55.02568750952209], [82.45035155541248, 55.02568750952209], [82.45035155541248, 55.03467062127201], [82.48188192609946, 55.03467062127201], [82.48188192609946, 55.02568750952209], [82.49764711144296, 55.02568750952209], [82.49764711144296, 55.01670439777219], [82.48188192609946, 55.01670439777219]]], [[[82.49764711144296, 55.070603068271645], [82.49764711144296, 55.052636844771826], [82.46611674075598, 55.052636844771826], [82.46611674075598, 55.070603068271645], [82.49764711144296, 55.070603068271645]]], [[[82.59223822350394, 55.14246796227093], [82.56070785281695, 55.14246796227093], [82.56070785281695, 55.115518627021196], [82.57647303816044, 55.115518627021196], [82.57647303816044, 55.12450173877111], [82.59223822350394, 55.12450173877111], [82.59223822350394, 55.115518627021196], [82.60800340884744, 55.115518627021196], [82.60800340884744, 55.09755240352138], [82.57647303816044, 55.09755240352138], [82.57647303816044, 55.088569291771464], [82.56070785281695, 55.088569291771464], [82.56070785281695, 55.09755240352138], [82.54494266747345, 55.09755240352138], [82.54494266747345, 55.10653551527129], [82.52917748212995, 55.10653551527129], [82.52917748212995, 55.088569291771464], [82.51341229678646, 55.088569291771464], [82.51341229678646, 55.070603068271645], [82.49764711144296, 55.070603068271645], [82.49764711144296, 55.09755240352138], [82.51341229678646, 55.09755240352138], [82.51341229678646, 55.115518627021196], [82.52917748212995, 55.115518627021196], [82.52917748212995, 55.16043418577075], [82.54494266747345, 55.16043418577075], [82.54494266747345, 55.15145107402084], [82.59223822350394, 55.15145107402084], [82.59223822350394, 55.14246796227093]]], [[[82.54494266747345, 55.178400409270566], [82.54494266747345, 55.21433285627021], [82.56070785281695, 55.21433285627021], [82.56070785281695, 55.22331596802012], [82.57647303816044, 55.22331596802012], [82.57647303816044, 55.18738352102048], [82.56070785281695, 55.18738352102048], [82.56070785281695, 55.178400409270566], [82.54494266747345, 55.178400409270566]]], [[[82.3872908140385, 55.27721463851958], [82.3872908140385, 55.2951808620194], [82.40305599938199, 55.2951808620194], [82.40305599938199, 55.30416397376931], [82.41882118472549, 55.30416397376931], [82.41882118472549, 55.2951808620194], [82.43458637006898, 55.2951808620194], [82.43458637006898, 55.27721463851958], [82.3872908140385, 55.27721463851958]]], [[[82.48188192609946, 55.31314708551922], [82.51341229678646, 55.31314708551922], [82.51341229678646, 55.2951808620194], [82.48188192609946, 55.2951808620194], [82.48188192609946, 55.31314708551922]]], [[[82.57647303816044, 54.79212660402443], [82.57647303816044, 54.819075939274164], [82.63953377953443, 54.819075939274164], [82.63953377953443, 54.80110971577434], [82.65529896487791, 54.80110971577434], [82.65529896487791, 54.79212660402443], [82.57647303816044, 54.79212660402443]]], [[[82.62376859419093, 54.84602527452389], [82.62376859419093, 54.83704216277398], [82.59223822350394, 54.83704216277398], [82.59223822350394, 54.84602527452389], [82.62376859419093, 54.84602527452389]]], [[[82.7025945209084, 54.87297460977362], [82.7341248915954, 54.87297460977362], [82.7341248915954, 54.84602527452389], [82.7025945209084, 54.84602527452389], [82.7025945209084, 54.87297460977362]]], [[[82.78142044762589, 54.87297460977362], [82.78142044762589, 54.8550083862738], [82.7498900769389, 54.8550083862738], [82.7498900769389, 54.89094083327344], [82.7656552622824, 54.89094083327344], [82.7656552622824, 54.89992394502335], [82.79718563296939, 54.89992394502335], [82.79718563296939, 54.881957721523534], [82.81295081831287, 54.881957721523534], [82.81295081831287, 54.87297460977362], [82.78142044762589, 54.87297460977362]]], [[[82.79718563296939, 54.908907056773266], [82.79718563296939, 54.93585639202299], [82.82871600365637, 54.93585639202299], [82.82871600365637, 54.91789016852317], [82.81295081831287, 54.91789016852317], [82.81295081831287, 54.908907056773266], [82.79718563296939, 54.908907056773266]]], [[[82.56070785281695, 54.944839503772904], [82.59223822350394, 54.944839503772904], [82.59223822350394, 54.926873280273085], [82.56070785281695, 54.926873280273085], [82.56070785281695, 54.944839503772904]]], [[[82.68682933556491, 55.052636844771826], [82.7183597062519, 55.052636844771826], [82.7183597062519, 55.04365373302191], [82.7498900769389, 55.04365373302191], [82.7498900769389, 55.052636844771826], [82.78142044762589, 55.052636844771826], [82.78142044762589, 55.06161995652174], [82.81295081831287, 55.06161995652174], [82.81295081831287, 55.02568750952209], [82.82871600365637, 55.02568750952209], [82.82871600365637, 55.01670439777219], [82.81295081831287, 55.01670439777219], [82.81295081831287, 55.007721286022274], [82.82871600365637, 55.007721286022274], [82.82871600365637, 54.971788839022636], [82.7656552622824, 54.971788839022636], [82.7656552622824, 54.96280572727272], [82.7341248915954, 54.96280572727272], [82.7341248915954, 54.971788839022636], [82.7183597062519, 54.971788839022636], [82.7183597062519, 54.96280572727272], [82.68682933556491, 54.96280572727272], [82.68682933556491, 54.971788839022636], [82.67106415022141, 54.971788839022636], [82.67106415022141, 54.989755062522455], [82.60800340884744, 54.989755062522455], [82.60800340884744, 54.99873817427236], [82.67106415022141, 54.99873817427236], [82.67106415022141, 55.007721286022274], [82.68682933556491, 55.007721286022274], [82.68682933556491, 55.01670439777219], [82.7025945209084, 55.01670439777219], [82.7025945209084, 55.02568750952209], [82.67106415022141, 55.02568750952209], [82.67106415022141, 55.04365373302191], [82.68682933556491, 55.04365373302191], [82.68682933556491, 55.052636844771826]], [[82.7025945209084, 55.007721286022274], [82.7341248915954, 55.007721286022274], [82.7341248915954, 54.99873817427236], [82.79718563296939, 54.99873817427236], [82.79718563296939, 55.007721286022274], [82.7656552622824, 55.007721286022274], [82.7656552622824, 55.02568750952209], [82.7498900769389, 55.02568750952209], [82.7498900769389, 55.03467062127201], [82.7341248915954, 55.03467062127201], [82.7341248915954, 55.02568750952209], [82.7183597062519, 55.02568750952209], [82.7183597062519, 55.01670439777219], [82.7025945209084, 55.01670439777219], [82.7025945209084, 55.007721286022274]], [[82.78142044762589, 55.02568750952209], [82.78142044762589, 55.03467062127201], [82.7656552622824, 55.03467062127201], [82.7656552622824, 55.02568750952209], [82.78142044762589, 55.02568750952209]]], [[[82.67106415022141, 55.07958618002156], [82.67106415022141, 55.070603068271645], [82.60800340884744, 55.070603068271645], [82.60800340884744, 55.09755240352138], [82.62376859419093, 55.09755240352138], [82.62376859419093, 55.10653551527129], [82.7025945209084, 55.10653551527129], [82.7025945209084, 55.09755240352138], [82.7183597062519, 55.09755240352138], [82.7183597062519, 55.088569291771464], [82.7498900769389, 55.088569291771464], [82.7498900769389, 55.07958618002156], [82.7656552622824, 55.07958618002156], [82.7656552622824, 55.12450173877111], [82.79718563296939, 55.12450173877111], [82.79718563296939, 55.115518627021196], [82.78142044762589, 55.115518627021196], [82.78142044762589, 55.06161995652174], [82.7498900769389, 55.06161995652174], [82.7498900769389, 55.070603068271645], [82.68682933556491, 55.070603068271645], [82.68682933556491, 55.07958618002156], [82.67106415022141, 55.07958618002156]]], [[[82.78142044762589, 55.16043418577075], [82.78142044762589, 55.15145107402084], [82.7656552622824, 55.15145107402084], [82.7656552622824, 55.16043418577075], [82.7498900769389, 55.16043418577075], [82.7498900769389, 55.16941729752066], [82.7656552622824, 55.16941729752066], [82.7656552622824, 55.178400409270566], [82.78142044762589, 55.178400409270566], [82.78142044762589, 55.16941729752066], [82.79718563296939, 55.16941729752066], [82.79718563296939, 55.16043418577075], [82.78142044762589, 55.16043418577075]]], [[[82.60800340884744, 55.22331596802012], [82.60800340884744, 55.21433285627021], [82.59223822350394, 55.21433285627021], [82.59223822350394, 55.22331596802012], [82.60800340884744, 55.22331596802012]]], [[[82.7183597062519, 55.28619775026949], [82.7183597062519, 55.27721463851958], [82.67106415022141, 55.27721463851958], [82.67106415022141, 55.26823152676967], [82.63953377953443, 55.26823152676967], [82.63953377953443, 55.28619775026949], [82.7025945209084, 55.28619775026949], [82.7025945209084, 55.32213019726913], [82.7341248915954, 55.32213019726913], [82.7341248915954, 55.33111330901904], [82.7656552622824, 55.33111330901904], [82.7656552622824, 55.2951808620194], [82.7498900769389, 55.2951808620194], [82.7498900769389, 55.28619775026949], [82.7183597062519, 55.28619775026949]]], [[[82.59223822350394, 55.31314708551922], [82.59223822350394, 55.30416397376931], [82.54494266747345, 55.30416397376931], [82.54494266747345, 55.31314708551922], [82.59223822350394, 55.31314708551922]]]]}}, {"type": "Feature", "properties": {"name": "Искитим", "value": 179}, "geometry": {"type": "MultiPolygon", "coordinates": [[[[83.23861082258726, 54.55856569852676], [83.23861082258726, 54.57653192202659], [83.27014119327426, 54.57653192202659], [83.27014119327426, 54.55856569852676], [83.23861082258726, 54.55856569852676]]], [[[83.14401971052628, 54.57653192202659], [83.14401971052628, 54.585515033776495], [83.15978489586978, 54.585515033776495], [83.15978489586978, 54.59449814552641], [83.17555008121327, 54.59449814552641], [83.17555008121327, 54.57653192202659], [83.14401971052628, 54.57653192202659]]], [[[83.41202786136571, 54.61246436902623], [83.41202786136571, 54.603481257276314], [83.38049749067872, 54.603481257276314], [83.38049749067872, 54.62144748077614], [83.42779304670921, 54.62144748077614], [83.42779304670921, 54.61246436902623], [83.41202786136571, 54.61246436902623]]], [[[83.30167156396125, 54.66636303952569], [83.30167156396125, 54.65737992777578], [83.31743674930473, 54.65737992777578], [83.31743674930473, 54.66636303952569], [83.33320193464823, 54.66636303952569], [83.33320193464823, 54.648396816025866], [83.34896711999173, 54.648396816025866], [83.34896711999173, 54.63941370427596], [83.36473230533522, 54.63941370427596], [83.36473230533522, 54.63043059252605], [83.33320193464823, 54.63043059252605], [83.33320193464823, 54.59449814552641], [83.34896711999173, 54.59449814552641], [83.34896711999173, 54.585515033776495], [83.33320193464823, 54.585515033776495], [83.33320193464823, 54.55856569852676], [83.31743674930473, 54.55856569852676], [83.31743674930473, 54.585515033776495], [83.30167156396125, 54.585515033776495], [83.30167156396125, 54.59449814552641], [83.31743674930473, 54.59449814552641], [83.31743674930473, 54.603481257276314], [83.27014119327426, 54.603481257276314], [83.27014119327426, 54.62144748077614], [83.25437600793076, 54.62144748077614], [83.25437600793076, 54.63043059252605], [83.27014119327426, 54.63043059252605], [83.27014119327426, 54.63941370427596], [83.25437600793076, 54.63941370427596], [83.25437600793076, 54.648396816025866], [83.27014119327426, 54.648396816025866], [83.27014119327426, 54.65737992777578], [83.22284563724376, 54.65737992777578], [83.22284563724376, 54.66636303952569], [83.20708045190027, 54.66636303952569], [83.20708045190027, 54.68432926302551], [83.25437600793076, 54.68432926302551], [83.25437600793076, 54.66636303952569], [83.30167156396125, 54.66636303952569]]], [[[83.20708045190027, 54.63043059252605], [83.20708045190027, 54.63941370427596], [83.23861082258726, 54.63941370427596], [83.23861082258726, 54.63043059252605], [83.20708045190027, 54.63043059252605]]], [[[83.41202786136571, 54.648396816025866], [83.41202786136571, 54.66636303952569], [83.44355823205271, 54.66636303952569], [83.44355823205271, 54.648396816025866], [83.41202786136571, 54.648396816025866]]], [[[83.34896711999173, 54.66636303952569], [83.34896711999173, 54.6753461512756], [83.36473230533522, 54.6753461512756], [83.36473230533522, 54.66636303952569], [83.34896711999173, 54.66636303952569]]], [[[83.28590637861775, 54.69331237477542], [83.25437600793076, 54.69331237477542], [83.25437600793076, 54.72026171002515], [83.30167156396125, 54.72026171002515], [83.30167156396125, 54.70229548652533], [83.28590637861775, 54.70229548652533], [83.28590637861775, 54.69331237477542]]], [[[83.4593234173962, 54.711278598275236], [83.44355823205271, 54.711278598275236], [83.44355823205271, 54.72026171002515], [83.47508860273969, 54.72026171002515], [83.47508860273969, 54.69331237477542], [83.4593234173962, 54.69331237477542], [83.4593234173962, 54.711278598275236]]]]}}, {"type": "Feature", "properties": {"name": "Куйбышев", "value": 200}, "geometry": {"type": "MultiPolygon", "coordinates": [[[[78.3671685514471, 55.40297820301832], [78.3356381807601, 55.40297820301832], [78.3356381807601, 55.411961314768234], [78.3671685514471, 55.411961314768234], [78.3671685514471, 55.40297820301832]]], [[[78.3356381807601, 55.46585998526769], [78.3514033661036, 55.46585998526769], [78.3514033661036, 55.456876873517785], [78.3671685514471, 55.456876873517785], [78.3671685514471, 55.46585998526769], [78.39869892213409, 55.46585998526769], [78.39869892213409, 55.456876873517785], [78.43022929282108, 55.456876873517785], [78.43022929282108, 55.44789376176787], [78.44599447816458, 55.44789376176787], [78.44599447816458, 55.42992753826805], [78.41446410747758, 55.42992753826805], [78.41446410747758, 55.42094442651814], [78.27257743938613, 55.42094442651814], [78.27257743938613, 55.411961314768234], [78.24104706869913, 55.411961314768234], [78.24104706869913, 55.42992753826805], [78.25681225404263, 55.42992753826805], [78.25681225404263, 55.44789376176787], [78.24104706869913, 55.44789376176787], [78.24104706869913, 55.46585998526769], [78.25681225404263, 55.46585998526769], [78.25681225404263, 55.474843097017605], [78.3356381807601, 55.474843097017605], [78.3356381807601, 55.46585998526769]]], [[[78.49329003419506, 55.44789376176787], [78.46175966350808, 55.44789376176787], [78.46175966350808, 55.46585998526769], [78.49329003419506, 55.46585998526769], [78.49329003419506, 55.44789376176787]]], [[[78.44599447816458, 55.456876873517785], [78.43022929282108, 55.456876873517785], [78.43022929282108, 55.46585998526769], [78.41446410747758, 55.46585998526769], [78.41446410747758, 55.474843097017605], [78.44599447816458, 55.474843097017605], [78.44599447816458, 55.456876873517785]]]]}}, {"type": "Feature", "properties": {"name": "Барабинск", "value": 178}, "geometry": {"type": "MultiPolygon", "coordinates": [[[[78.47752484885157, 55.30416397376931], [78.44599447816458, 55.30416397376931], [78.44599447816458, 55.31314708551922], [78.46175966350808, 55.31314708551922], [78.46175966350808, 55.32213019726913], [78.47752484885157, 55.32213019726913], [78.47752484885157, 55.30416397376931]]], [[[78.31987299541662, 55.31314708551922], [78.30410781007312, 55.31314708551922], [78.30410781007312, 55.32213019726913], [78.31987299541662, 55.32213019726913], [78.31987299541662, 55.31314708551922]]], [[[78.22528188335563, 55.31314708551922], [78.19375151266864, 55.31314708551922], [78.19375151266864, 55.33111330901904], [78.22528188335563, 55.33111330901904], [78.22528188335563, 55.31314708551922]]], [[[78.3671685514471, 55.36704575601868], [78.3671685514471, 55.37602886776859], [78.41446410747758, 55.37602886776859], [78.41446410747758, 55.35806264426877], [78.43022929282108, 55.35806264426877], [78.43022929282108, 55.349079532518864], [78.41446410747758, 55.349079532518864], [78.41446410747758, 55.34009642076895], [78.39869892213409, 55.34009642076895], [78.39869892213409, 55.33111330901904], [78.3514033661036, 55.33111330901904], [78.3514033661036, 55.32213019726913], [78.31987299541662, 55.32213019726913], [78.31987299541662, 55.33111330901904], [78.30410781007312, 55.33111330901904], [78.30410781007312, 55.34009642076895], [78.27257743938613, 55.34009642076895], [78.27257743938613, 55.349079532518864], [78.28834262472962, 55.349079532518864], [78.28834262472962, 55.35806264426877], [78.31987299541662, 55.35806264426877], [78.31987299541662, 55.37602886776859], [78.3356381807601, 55.37602886776859], [78.3356381807601, 55.3850119795185], [78.3514033661036, 55.3850119795185], [78.3514033661036, 55.36704575601868], [78.3671685514471, 55.36704575601868]]], [[[78.46175966350808, 55.36704575601868], [78.46175966350808, 55.35806264426877], [78.44599447816458, 55.35806264426877], [78.44599447816458, 55.37602886776859], [78.47752484885157, 55.37602886776859], [78.47752484885157, 55.36704575601868], [78.46175966350808, 55.36704575601868]]]]}}, {"type": "Feature", "properties": {"name": "Карасук", "value": 205}, "geometry": {"type": "MultiPolygon", "coordinates": [[[[78.16222114198165, 53.65127141178584], [78.17798632732514, 53.65127141178584], [78.17798632732514, 53.64228830003593], [78.14645595663816, 53.64228830003593], [78.14645595663816, 53.66025452353575], [78.16222114198165, 53.66025452353575], [78.16222114198165, 53.65127141178584]]], [[[77.90997817648572, 53.66025452353575], [77.90997817648572, 53.67822074703557], [77.92574336182922, 53.67822074703557], [77.92574336182922, 53.66025452353575], [77.90997817648572, 53.66025452353575]]], [[[77.94150854717272, 53.72313630578512], [77.94150854717272, 53.741102529284944], [77.95727373251621, 53.741102529284944], [77.95727373251621, 53.72313630578512], [77.94150854717272, 53.72313630578512]]], [[[78.03609965923368, 53.75008564103485], [78.03609965923368, 53.75906875278476], [78.06763002992068, 53.75906875278476], [78.06763002992068, 53.741102529284944], [78.08339521526418, 53.741102529284944], [78.08339521526418, 53.71415319403521], [78.05186484457718, 53.71415319403521], [78.05186484457718, 53.7051700822853], [78.03609965923368, 53.7051700822853], [78.03609965923368, 53.71415319403521], [78.00456928854669, 53.71415319403521], [78.00456928854669, 53.72313630578512], [77.98880410320321, 53.72313630578512], [77.98880410320321, 53.741102529284944], [77.97303891785971, 53.741102529284944], [77.97303891785971, 53.75906875278476], [78.02033447389019, 53.75906875278476], [78.02033447389019, 53.75008564103485], [78.03609965923368, 53.75008564103485]]], [[[78.19375151266864, 53.73211941753503], [78.19375151266864, 53.72313630578512], [78.17798632732514, 53.72313630578512], [78.17798632732514, 53.741102529284944], [78.20951669801214, 53.741102529284944], [78.20951669801214, 53.73211941753503], [78.19375151266864, 53.73211941753503]]], [[[77.92574336182922, 53.7950011997844], [77.92574336182922, 53.803984311534315], [77.94150854717272, 53.803984311534315], [77.94150854717272, 53.7950011997844], [77.92574336182922, 53.7950011997844]]], [[[78.17798632732514, 53.803984311534315], [78.17798632732514, 53.7950011997844], [78.16222114198165, 53.7950011997844], [78.16222114198165, 53.81296742328422], [78.20951669801214, 53.81296742328422], [78.20951669801214, 53.803984311534315], [78.17798632732514, 53.803984311534315]]]]}}, {"type": "Feature", "properties": {"name": "Татарск", "value": 195}, "geometry": {"type": "MultiPolygon", "coordinates": [[[[75.90779963786177, 55.18738352102048], [75.92356482320527, 55.18738352102048], [75.92356482320527, 55.178400409270566], [75.90779963786177, 55.178400409270566], [75.90779963786177, 55.16941729752066], [75.87626926717478, 55.16941729752066], [75.87626926717478, 55.196366632770385], [75.90779963786177, 55.196366632770385], [75.90779963786177, 55.18738352102048]]], [[[76.03392112060973, 55.18738352102048], [76.01815593526624, 55.18738352102048], [76.01815593526624, 55.178400409270566], [75.98662556457926, 55.178400409270566], [75.98662556457926, 55.196366632770385], [76.00239074992274, 55.196366632770385], [76.00239074992274, 55.2053497445203], [76.03392112060973, 55.2053497445203], [76.03392112060973, 55.18738352102048]]], [[[76.06545149129673, 55.2053497445203], [76.03392112060973, 55.2053497445203], [76.03392112060973, 55.21433285627021], [76.06545149129673, 55.21433285627021], [76.06545149129673, 55.2053497445203]]], [[[76.00239074992274, 55.23229907977003], [76.00239074992274, 55.22331596802012], [76.01815593526624, 55.22331596802012], [76.01815593526624, 55.21433285627021], [76.00239074992274, 55.21433285627021], [76.00239074992274, 55.2053497445203], [75.98662556457926, 55.2053497445203], [75.98662556457926, 55.196366632770385], [75.97086037923576, 55.196366632770385], [75.97086037923576, 55.2053497445203], [75.95509519389226, 55.2053497445203], [75.95509519389226, 55.21433285627021], [75.93933000854877, 55.21433285627021], [75.93933000854877, 55.22331596802012], [75.95509519389226, 55.22331596802012], [75.95509519389226, 55.23229907977003], [75.97086037923576, 55.23229907977003], [75.97086037923576, 55.241282191519936], [75.98662556457926, 55.241282191519936], [75.98662556457926, 55.23229907977003], [76.00239074992274, 55.23229907977003]]], [[[76.04968630595323, 55.25026530326985], [76.04968630595323, 55.26823152676967], [76.08121667664022, 55.26823152676967], [76.08121667664022, 55.25026530326985], [76.04968630595323, 55.25026530326985]]]]}}, {"type": "Feature", "properties": {"name": "Купино", "value": 180}, "geometry": {"type": "Polygon", "coordinates": [[[76.94830187053249, 54.38788657527847], [76.94830187053249, 54.378903463528566], [76.93253668518899, 54.378903463528566], [76.93253668518899, 54.36992035177865], [76.9167714998455, 54.36992035177865], [76.9167714998455, 54.36093724002874], [76.93253668518899, 54.36093724002874], [76.93253668518899, 54.351954128278834], [76.94830187053249, 54.351954128278834], [76.94830187053249, 54.34297101652892], [76.96406705587599, 54.34297101652892], [76.96406705587599, 54.351954128278834], [76.97983224121948, 54.351954128278834], [76.97983224121948, 54.36093724002874], [76.99559742656298, 54.36093724002874], [76.99559742656298, 54.36992035177865], [76.97983224121948, 54.36992035177865], [76.97983224121948, 54.378903463528566], [76.96406705587599, 54.378903463528566], [76.96406705587599, 54.38788657527847], [76.94830187053249, 54.38788657527847]]]}}, {"type": "Feature", "properties": {"name": "Черепаново", "value": 180}, "geometry": {"type": "MultiPolygon", "coordinates": [[[[83.34896711999173, 54.23517367553], [83.36473230533522, 54.23517367553], [83.36473230533522, 54.24415678727991], [83.42779304670921, 54.24415678727991], [83.42779304670921, 54.226190563780094], [83.41202786136571, 54.226190563780094], [83.41202786136571, 54.21720745203018], [83.39626267602222, 54.21720745203018], [83.39626267602222, 54.20822434028027], [83.42779304670921, 54.20822434028027], [83.42779304670921, 54.19924122853036], [83.41202786136571, 54.19924122853036], [83.41202786136571, 54.19025811678045], [83.42779304670921, 54.19025811678045], [83.42779304670921, 54.18127500503054], [83.44355823205271, 54.18127500503054], [83.44355823205271, 54.19025811678045], [83.4593234173962, 54.19025811678045], [83.4593234173962, 54.21720745203018], [83.47508860273969, 54.21720745203018], [83.47508860273969, 54.17229189328063], [83.4593234173962, 54.17229189328063], [83.4593234173962, 54.163308781530716], [83.42779304670921, 54.163308781530716], [83.42779304670921, 54.17229189328063], [83.39626267602222, 54.17229189328063], [83.39626267602222, 54.19924122853036], [83.38049749067872, 54.19924122853036], [83.38049749067872, 54.18127500503054], [83.31743674930473, 54.18127500503054], [83.31743674930473, 54.19924122853036], [83.36473230533522, 54.19924122853036], [83.36473230533522, 54.20822434028027], [83.34896711999173, 54.20822434028027], [83.34896711999173, 54.21720745203018], [83.31743674930473, 54.21720745203018], [83.31743674930473, 54.226190563780094], [83.33320193464823, 54.226190563780094], [83.33320193464823, 54.23517367553], [83.31743674930473, 54.23517367553], [83.31743674930473, 54.24415678727991], [83.34896711999173, 54.24415678727991], [83.34896711999173, 54.23517367553]]], [[[83.49085378808319, 54.24415678727991], [83.44355823205271, 54.24415678727991], [83.44355823205271, 54.26212301077973], [83.49085378808319, 54.26212301077973], [83.49085378808319, 54.24415678727991]]], [[[83.27014119327426, 54.28008923427955], [83.23861082258726, 54.28008923427955], [83.23861082258726, 54.289072346029464], [83.27014119327426, 54.289072346029464], [83.27014119327426, 54.28008923427955]]], [[[83.36473230533522, 54.29805545777937], [83.34896711999173, 54.29805545777937], [83.34896711999173, 54.289072346029464], [83.33320193464823, 54.289072346029464], [83.33320193464823, 54.28008923427955], [83.31743674930473, 54.28008923427955], [83.31743674930473, 54.289072346029464], [83.30167156396125, 54.289072346029464], [83.30167156396125, 54.30703856952928], [83.36473230533522, 54.30703856952928], [83.36473230533522, 54.29805545777937]]]]}}, {"type": "Feature", "properties": {"name": "Болотное", "value": 178}, "geometry": {"type": "MultiPolygon", "coordinates": [[[[84.42099972334944, 55.57365732626661], [84.38946935266245, 55.57365732626661], [84.38946935266245, 55.582640438016526], [84.37370416731895, 55.582640438016526], [84.37370416731895, 55.59162354976644], [84.38946935266245, 55.59162354976644], [84.38946935266245, 55.600606661516345], [84.42099972334944, 55.600606661516345], [84.42099972334944, 55.57365732626661]]], [[[84.46829527937992, 55.60958977326626], [84.40523453800594, 55.60958977326626], [84.40523453800594, 55.618572885016164], [84.42099972334944, 55.618572885016164], [84.42099972334944, 55.62755599676608], [84.46829527937992, 55.62755599676608], [84.46829527937992, 55.60958977326626]]], [[[84.31064342594496, 55.62755599676608], [84.27911305525798, 55.62755599676608], [84.27911305525798, 55.645522220265896], [84.31064342594496, 55.645522220265896], [84.31064342594496, 55.62755599676608]]], [[[84.5155908354104, 55.65450533201581], [84.5155908354104, 55.645522220265896], [84.49982565006691, 55.645522220265896], [84.49982565006691, 55.663488443765715], [84.5313560207539, 55.663488443765715], [84.5313560207539, 55.65450533201581], [84.5155908354104, 55.65450533201581]]], [[[84.45253009403643, 55.681454667265534], [84.45253009403643, 55.67247155551563], [84.43676490869294, 55.67247155551563], [84.43676490869294, 55.663488443765715], [84.42099972334944, 55.663488443765715], [84.42099972334944, 55.65450533201581], [84.40523453800594, 55.65450533201581], [84.40523453800594, 55.645522220265896], [84.35793898197545, 55.645522220265896], [84.35793898197545, 55.63653910851599], [84.34217379663195, 55.63653910851599], [84.34217379663195, 55.645522220265896], [84.32640861128846, 55.645522220265896], [84.32640861128846, 55.65450533201581], [84.34217379663195, 55.65450533201581], [84.34217379663195, 55.67247155551563], [84.35793898197545, 55.67247155551563], [84.35793898197545, 55.681454667265534], [84.37370416731895, 55.681454667265534], [84.37370416731895, 55.69043777901545], [84.42099972334944, 55.69043777901545], [84.42099972334944, 55.681454667265534], [84.45253009403643, 55.681454667265534]]]]}}, {"type": "Feature", "properties": {"name": "Каргат", "value": 178}, "geometry": {"type": "Polygon", "coordinates": [[[80.30628634869707, 55.22331596802012], [80.30628634869707, 55.21433285627021], [80.24322560732308, 55.21433285627021], [80.24322560732308, 55.2053497445203], [80.22746042197959, 55.2053497445203], [80.22746042197959, 55.196366632770385], [80.21169523663609, 55.196366632770385], [80.21169523663609, 55.18738352102048], [80.22746042197959, 55.18738352102048], [80.22746042197959, 55.178400409270566], [80.27475597801008, 55.178400409270566], [80.27475597801008, 55.16941729752066], [80.30628634869707, 55.16941729752066], [80.30628634869707, 55.178400409270566], [80.32205153404055, 55.178400409270566], [80.32205153404055, 55.16941729752066], [80.33781671938405, 55.16941729752066], [80.33781671938405, 55.196366632770385], [80.32205153404055, 55.196366632770385], [80.32205153404055, 55.2053497445203], [80.33781671938405, 55.2053497445203], [80.33781671938405, 55.21433285627021], [80.32205153404055, 55.21433285627021], [80.32205153404055, 55.22331596802012], [80.30628634869707, 55.22331596802012]]]}}, {"type": "Feature", "properties": {"name": "Чулым", "value": 173}, "geometry": {"type": "MultiPolygon", "coordinates": [[[[81.07878043052835, 55.06161995652174], [81.07878043052835, 55.04365373302191], [81.04725005984136, 55.04365373302191], [81.04725005984136, 55.06161995652174], [81.07878043052835, 55.06161995652174]]], [[[80.99995450381087, 55.12450173877111], [80.99995450381087, 55.07958618002156], [80.98418931846737, 55.07958618002156], [80.98418931846737, 55.070603068271645], [80.95265894778039, 55.070603068271645], [80.95265894778039, 55.07958618002156], [80.9368937624369, 55.07958618002156], [80.9368937624369, 55.088569291771464], [80.9211285770934, 55.088569291771464], [80.9211285770934, 55.09755240352138], [80.9368937624369, 55.09755240352138], [80.9368937624369, 55.115518627021196], [80.96842413312389, 55.115518627021196], [80.96842413312389, 55.12450173877111], [80.99995450381087, 55.12450173877111]]]]}}, {"type": "Feature", "properties": {"name": "Тогучин", "value": 171}, "geometry": {"type": "MultiPolygon", "coordinates": [[[[84.29487824060148, 55.15145107402084], [84.26334786991448, 55.15145107402084], [84.26334786991448, 55.16941729752066], [84.29487824060148, 55.16941729752066], [84.29487824060148, 55.15145107402084]]], [[[84.5155908354104, 55.22331596802012], [84.5155908354104, 55.21433285627021], [84.49982565006691, 55.21433285627021], [84.49982565006691, 55.241282191519936], [84.5313560207539, 55.241282191519936], [84.5313560207539, 55.22331596802012], [84.5155908354104, 55.22331596802012]]], [[[84.37370416731895, 55.25924841501976], [84.37370416731895, 55.26823152676967], [84.42099972334944, 55.26823152676967], [84.42099972334944, 55.25924841501976], [84.43676490869294, 55.25924841501976], [84.43676490869294, 55.23229907977003], [84.45253009403643, 55.23229907977003], [84.45253009403643, 55.22331596802012], [84.43676490869294, 55.22331596802012], [84.43676490869294, 55.21433285627021], [84.40523453800594, 55.21433285627021], [84.40523453800594, 55.2053497445203], [84.38946935266245, 55.2053497445203], [84.38946935266245, 55.21433285627021], [84.35793898197545, 55.21433285627021], [84.35793898197545, 55.22331596802012], [84.34217379663195, 55.22331596802012], [84.34217379663195, 55.23229907977003], [84.32640861128846, 55.23229907977003], [84.32640861128846, 55.26823152676967], [84.35793898197545, 55.26823152676967], [84.35793898197545, 55.25924841501976], [84.37370416731895, 55.25924841501976]]], [[[84.31064342594496, 55.26823152676967], [84.27911305525798, 55.26823152676967], [84.27911305525798, 55.28619775026949], [84.31064342594496, 55.28619775026949], [84.31064342594496, 55.26823152676967]]], [[[84.48406046472341, 55.27721463851958], [84.48406046472341, 55.26823152676967], [84.45253009403643, 55.26823152676967], [84.45253009403643, 55.27721463851958], [84.46829527937992, 55.27721463851958], [84.46829527937992, 55.28619775026949], [84.49982565006691, 55.28619775026949], [84.49982565006691, 55.27721463851958], [84.48406046472341, 55.27721463851958]]], [[[84.49982565006691, 55.2951808620194], [84.49982565006691, 55.31314708551922], [84.5313560207539, 55.31314708551922], [84.5313560207539, 55.2951808620194], [84.49982565006691, 55.2951808620194]]]]}}]}