{"type": "FeatureCollection", "features": [{"type": "Feature", "properties": {"name": "Новосибирск", "score": 223, "lon": 82.9346, "lat": 55.0084}, "geometry": {"type": "Polygon", "coordinates": [[[82.8262421088099, 54.755019894414296], [82.79599495542269, 55.35871307978686], [82.81235751677745, 55.36082015106117], [82.84265952147454, 55.36383532517599], [82.87318301883745, 55.36599422446001], [82.90385447508747, 55.367291647935744], [82.9346, 55.36772446999641], [82.96534552491251, 55.367291647935744], [82.99601698116253, 55.36599422446001], [83.02654047852543, 55.36383532517599], [83.05684248322252, 55.36082015106117], [83.08684999507038, 55.356955965934084], [83.11649072334457, 55.35225207895516], [83.14569326093446, 55.34671982220015], [83.17438725636923, 55.340372523360145], [83.20250358330047, 55.33322547363401], [83.22997450703396, 55.32529589089054], [83.25673384770828, 55.3166028781891], [83.28271713972786, 55.30716737775873], [83.30786178706636, 55.297012120546405], [83.332107214066, 55.28616157145625], [83.3553950113694, 55.274641870411415], [83.3776690766331, 55.26248076938072], [83.39887574968294, 55.249707565521746], [83.41896394178606, 55.236353030601386], [83.43788525872812, 55.222449336863974], [83.45559411739934, 55.20802997952555], [83.47204785560807, 55.19312969608093], [83.47583624323757, 55.189294741580625], [82.8262421088099, 54.755019894414296]]]}}, {"type": "Feature", "properties": {"name": "Бердск", "score": 210, "lon": 83.1018, "lat": 54.7583}, "geometry": {"type": "Polygon", "coordinates": [[[83.33081127086164, 55.0923408216236], [83.34010349238548, 55.09027252336014], [83.36804584012415, 55.083125473634006], [83.39534677831358, 55.075195890890534], [83.42194053660239, 55.0665028781891], [83.42555442884158, 55.065182368310715], [83.02780874459226, 54.401627727190814], [83.01042843398787, 54.40286467482401], [82.98031393309682, 54.40587984893883], [82.95049210278182, 54.409744034065916], [82.92103478644424, 54.41444792104484], [82.89201294933929, 54.41998017779985], [82.86349650761451, 54.426327476639855], [82.83555415987587, 54.43347452636599], [82.80825322168644, 54.44140410910946], [82.78165946339763, 54.4500971218109], [82.75583695170249, 54.45953262224127], [82.7308478952935, 54.469687879453595], [82.7067524949963, 54.48053842854375], [82.68360879874072, 54.492058129588585], [82.67565503886742, 54.49642772850889], [82.8262421088099, 54.755019894414296], [83.33081127086164, 55.0923408216236]]]}}, {"type": "Feature", "properties": {"name": "Обь", "score": 216, "lon": 82.6931, "lat": 54.9963}, "geometry": {"type": "Polygon", "coordinates": [[[82.75868072701343, 54.639001672816754], [82.75449845878028, 54.63870577553999], [82.7238362525524, 54.637408352064256], [82.6931, 54.63697553000359], [82.66236374744757, 54.637408352064256], [82.6317015412197, 54.63870577553999], [82.60118724925691, 54.64086467482401], [82.57089438316127, 54.64387984893883], [82.54089592110056, 54.647744034065916], [82.51126413199741, 54.65244792104484], [82.48207040142721, 54.65798017779985], [82.45338505964396, 54.664327476639855], [82.4252772121486, 54.67147452636599], [82.3978145732077, 54.67940410910946], [82.37106330272387, 54.6880971218109], [82.34508784685086, 54.69753262224127], [82.31995078273708, 54.707687879453594], [82.29571266777164, 54.71853842854375], [82.2724318936966, 54.730058129588585], [82.25016454593582, 54.74221923061928], [82.22896426848042, 54.754992434478254], [82.20888213465575, 54.768346969398614], [82.18996652408119, 54.782250663136026], [82.17226300611937, 54.79667002047445], [82.15581423009577, 54.81157030391907], [82.14065982255254, 54.826915617381964], [82.12683629178481, 54.8426689926589], [82.11437693988903, 54.85879247848901], [82.10331178253522, 54.87524723198267], [82.09366747665659, 54.89199361219746], [82.08546725623081, 54.90899127563662], [82.07873087630712, 54.926199273440126], [82.07347456541477, 54.943576150034005], [82.06971098646714, 54.961080043000514], [82.06744920625549, 54.97866878392834], [82.06669467360653, 54.9963], [82.06744920625549, 55.013931216071654], [82.06971098646714, 55.03151995699948], [82.07347456541477, 55.04902384996599], [82.07873087630712, 55.06640072655987], [82.08546725623081, 55.08360872436337], [82.09366747665659, 55.100606387802536], [82.10331178253522, 55.11735276801733], [82.11437693988903, 55.13380752151099], [82.12683629178481, 55.149931007341095], [82.14065982255254, 55.16568438261803], [82.15581423009577, 55.18102969608093], [82.17226300611937, 55.195929979525545], [82.18996652408119, 55.21034933686397], [82.20888213465575, 55.22425303060138], [82.22896426848042, 55.23760756552174], [82.25016454593582, 55.25038076938072], [82.2724318936966, 55.26254187041141], [82.29571266777164, 55.274061571456244], [82.31995078273708, 55.2849121205464], [82.34508784685086, 55.29506737775873], [82.37106330272387, 55.3045028781891], [82.3978145732077, 55.31319589089053], [82.4252772121486, 55.321125473634005], [82.45338505964396, 55.32827252336014], [82.48207040142721, 55.334619822200146], [82.51126413199741, 55.34015207895516], [82.54089592110056, 55.34485596593408], [82.57089438316127, 55.348720151061165], [82.60118724925691, 55.35173532517599], [82.6317015412197, 55.35389422446001], [82.66236374744757, 55.35519164793574], [82.6931, 55.35562446999641], [82.7238362525524, 55.35519164793574], [82.75449845878028, 55.35389422446001], [82.78501275074309, 55.35173532517599], [82.79640136060287, 55.3506017697856], [82.8262421088099, 54.755019894414296], [82.75868072701343, 54.639001672816754]]]}}, {"type": "Feature", "properties": {"name": "Искитим", "score": 179, "lon": 83.3075, "lat": 54.635}, "geometry": {"type": "Polygon", "coordinates": [[[83.01226580144886, 54.375697610365194], [83.38148204251927, 54.991656903051194], [83.39859431000465, 54.99043532517599], [83.42861743207132, 54.987420151061166], [83.45834877163554, 54.98355596593408], [83.48771670329609, 54.97885207895516], [83.51665047713325, 54.973319822200146], [83.54508038915162, 54.96697252336014], [83.57293794920292, 54.959825473634005], [83.60015604598496, 54.95189589089053], [83.62666910871857, 54.9432028781891], [83.65241326511341, 54.93376737775873], [83.67732649524172, 54.9236121205464], [83.70134878095004, 54.912761571456244], [83.72442225044799, 54.90124187041141], [83.74649131772648, 54.88908076938072], [83.76750281646949, 54.87630756552174], [83.78740612813615, 54.86295303060138], [83.80615330390532, 54.84904933686397], [83.82369918018853, 54.834629979525545], [83.84000148743291, 54.81972969608093], [83.85502095195247, 54.80438438261803], [83.8687213905416, 54.788631007341095], [83.8810697976437, 54.77250752151099], [83.89203642486453, 54.75605276801733], [83.90159485263851, 54.739306387802536], [83.90972205387592, 54.72230872436337], [83.91639844943711, 54.70510072655987], [83.9216079553004, 54.68772384996599], [83.9253380213099, 54.67021995699948], [83.92757966140982, 54.652631216071654], [83.92832747529283, 54.635], [83.92757966140982, 54.61736878392834], [83.9253380213099, 54.599780043000514], [83.9216079553004, 54.582276150034005], [83.91639844943711, 54.564899273440126], [83.90972205387592, 54.54769127563662], [83.90159485263851, 54.53069361219746], [83.89294257019296, 54.51553479999684], [83.01226580144886, 54.375697610365194]]]}}, {"type": "Feature", "properties": {"name": "Куйбышев", "score": 200, "lon": 78.3269, "lat": 55.4497}, "geometry": {"type": "Polygon", "coordinates": [[[77.75113427199739, 55.299922781270936], [77.74154425325403, 55.31219247848901], [77.73035227924757, 55.32864723198267], [77.72059744095176, 55.34539361219746], [77.71230323862659, 55.362391275636625], [77.70548965373186, 55.37959927344013], [77.70017310079041, 55.39697615003401], [77.69636638784397, 55.414480043000516], [77.69407868559739, 55.432068783928344], [77.69331550532584, 55.4497], [77.69407868559739, 55.467331216071656], [77.69636638784397, 55.484919956999484], [77.70017310079041, 55.50242384996599], [77.70548965373186, 55.51980072655987], [77.71230323862659, 55.537008724363375], [77.72059744095176, 55.55400638780254], [77.73035227924757, 55.57075276801733], [77.74154425325403, 55.58720752151099], [77.75414640052554, 55.6033310073411], [77.76812836138544, 55.619084382618034], [77.7834564520654, 55.63442969608093], [77.80009374585237, 55.64932997952555], [77.81800016204835, 55.66374933686397], [77.83713256252832, 55.677653030601384], [77.85744485566374, 55.691007565521744], [77.87888810736123, 55.70378076938072], [77.90141065894935, 55.71594187041141], [77.92495825162848, 55.727461571456246], [77.94947415718542, 55.738312120546404], [77.97489931465626, 55.74846737775873], [78.00117247260974, 55.7579028781891], [78.02823033670705, 55.766595890890535], [78.05600772218361, 55.77452547363401], [78.08443771088477, 55.78167252336014], [78.11345181247765, 55.78801982220015], [78.14298012945008, 55.79355207895516], [78.17295152550017, 55.79825596593408], [78.2032937969096, 55.80212015106117], [78.2339338464889, 55.80513532517599], [78.2647978596749, 55.80729422446001], [78.29581148235644, 55.80859164793574], [78.3269, 55.80902446999641], [78.35798851764358, 55.80859164793574], [78.38900214032512, 55.80729422446001], [78.41986615351112, 55.80513532517599], [78.45050620309041, 55.80212015106117], [78.48084847449985, 55.79825596593408], [78.51081987054994, 55.79355207895516], [78.54034818752237, 55.78801982220015], [78.56936228911522, 55.78167252336014], [78.59779227781641, 55.77452547363401], [78.62556966329294, 55.766595890890535], [78.65262752739025, 55.7579028781891], [78.67890068534373, 55.74846737775873], [78.70432584281457, 55.738312120546404], [78.72884174837151, 55.727461571456246], [78.75238934105067, 55.71594187041141], [78.77491189263876, 55.70378076938072], [78.79635514433627, 55.691007565521744], [78.8166674374717, 55.677653030601384], [78.83579983795164, 55.66374933686397], [78.85370625414765, 55.64932997952555], [78.8703435479346, 55.63442969608093], [78.88567163861455, 55.619084382618034], [78.89965359947448, 55.6033310073411], [78.91225574674598, 55.58720752151099], [78.92344772075245, 55.57075276801733], [78.93320255904823, 55.55400638780254], [78.94149676137343, 55.537008724363375], [78.94831034626813, 55.51980072655987], [78.95252829185343, 55.506014590933546], [77.75113427199739, 55.299922781270936]]]}}, {"type": "Feature", "properties": {"name": "Барабинск", "score": 178, "lon": 78.3439, "lat": 55.3506}, "geometry": {"type": "Polygon", "coordinates": [[[78.91839403146606, 55.50015906695186], [78.92778995492698, 55.48810752151099], [78.93895390306365, 55.47165276801733], [78.94868431422732, 55.45490638780254], [78.95695774700512, 55.437908724363375], [78.96375426997288, 55.42070072655987], [78.96905750971148, 55.40332384996599], [78.97285469025182, 55.385819956999484], [78.97513666385346, 55.368231216071656], [78.97589793304205, 55.3506], [78.97513666385346, 55.332968783928344], [78.97285469025182, 55.315380043000516], [78.96905750971148, 55.29787615003401], [78.96375426997288, 55.28049927344013], [78.95695774700512, 55.263291275636625], [78.94868431422732, 55.24629361219746], [78.93895390306365, 55.22954723198267], [78.92778995492698, 55.21309247848901], [78.91521936474614, 55.1969689926589], [78.901272416174, 55.181215617381966], [78.8859827086312, 55.16587030391907], [78.86938707636249, 55.15097002047445], [78.85152549969955, 55.13655066313603], [78.83244100874514, 55.122646969398616], [78.81217957970951, 55.109292434478256], [78.7907900241499, 55.09651923061928], [78.7683238713792, 55.08435812958859], [78.74483524432718, 55.072838428543754], [78.72038072915377, 55.061987879453596], [78.69501923892808, 55.05183262224127], [78.66881187170135, 55.0423971218109], [78.6418217633168, 55.033704109109465], [78.61411393530953, 55.02577452636599], [78.58575513826419, 55.01862747663986], [78.55681369100672, 55.01228017779985], [78.5273593160186, 55.00674792104484], [78.49746297146903, 55.00204403406592], [78.4671966802707, 54.99817984893883], [78.43663335657008, 54.99516467482401], [78.40584663009098, 54.99300577553999], [78.37491066875411, 54.99170835206426], [78.3439, 54.99127553000359], [78.31288933124593, 54.99170835206426], [78.28195336990903, 54.99300577553999], [78.25116664342993, 54.99516467482401], [78.2206033197293, 54.99817984893883], [78.19033702853098, 55.00204403406592], [78.1604406839814, 55.00674792104484], [78.13098630899331, 55.01228017779985], [78.10204486173585, 55.01862747663986], [78.07368606469048, 55.02577452636599], [78.04597823668324, 55.033704109109465], [78.01898812829866, 55.0423971218109], [77.99278076107193, 55.05183262224127], [77.96741927084624, 55.061987879453596], [77.94296475567283, 55.072838428543754], [77.91947612862081, 55.08435812958859], [77.89700997585011, 55.09651923061928], [77.87562042029053, 55.109292434478256], [77.85535899125487, 55.122646969398616], [77.83627450030046, 55.13655066313603], [77.81841292363752, 55.15097002047445], [77.80181729136883, 55.16587030391907], [77.78652758382604, 55.181215617381966], [77.77258063525387, 55.1969689926589], [77.76001004507303, 55.21309247848901], [77.74884609693636, 55.22954723198267], [77.73911568577269, 55.24629361219746], [77.73084225299489, 55.263291275636625], [77.72404573002713, 55.28049927344013], [77.71976040812636, 55.29454078645956], [78.91839403146606, 55.50015906695186]]]}}, {"type": "Feature", "properties": {"name": "Карасук", "score": 205, "lon": 78.0403, "lat": 53.7317}, "geometry": {"type": "Polygon", "coordinates": [[[78.615323, 53.636928], [78.62156186368547, 53.62740578986173], [78.62155616693013, 53.62739361219746], [78.61220430154177, 53.61064723198267], [78.60147466859814, 53.594192478489006], [78.58939311672472, 53.5780689926589], [78.57598875143827, 53.56231561738196], [78.5612938650288, 53.54697030391907], [78.5453438587648, 53.53207002047445], [78.52817715760838, 53.517650663136024], [78.52555354537665, 53.515661903923245], [78.524839, 53.53003], [78.502811, 53.52679], [78.506375, 53.514157], [78.494119, 53.508542], [78.422961, 53.513292], [78.42172, 53.48619], [78.367676, 53.485649], [78.362871, 53.474204], [78.333933, 53.478955], [78.286692, 53.495475], [78.263908, 53.488672], [78.252246, 53.499146], [78.260237, 53.508432], [78.235887, 53.53575], [78.23162, 53.617058], [78.202142, 53.622996], [78.156898, 53.6217], [78.157169, 53.586068], [78.103719, 53.585743], [78.107891, 53.576234], [77.992825, 53.576564], [77.958488, 53.581531], [77.915788, 53.571123], [77.912165, 53.534344], [77.931764, 53.503355], [77.962778, 53.487273], [77.978843, 53.491694], [78.013775, 53.480356], [78.072408, 53.47323], [78.069061, 53.439325], [77.922449, 53.448716], [77.916811, 53.419996], [77.937867, 53.414489], [77.937435, 53.3984], [77.967922, 53.388269], [77.9559, 53.383931], [77.95188932564176, 53.376212503302135], [77.95117428341234, 53.37626467482401], [77.92179997596926, 53.37927984893883], [77.89271114546344, 53.383144034065914], [77.86397786943542, 53.38784792104484], [77.83566936886396, 53.39338017779985], [77.80785384140643, 53.39972747663985], [77.7805982971048, 53.40687452636599], [77.75396839695267, 53.41480410910946], [77.72802829471198, 53.4234971218109], [77.70284048236104, 53.43293262224127], [77.67846563954609, 53.44308787945359], [77.65496248739842, 53.45393842854375], [77.63238764707017, 53.46545812958858], [77.61079550332906, 53.477619230619275], [77.59023807354055, 53.49039243447825], [77.57076488235364, 53.50374696939861], [77.55242284239162, 53.517650663136024], [77.53525614123521, 53.53207002047445], [77.5193061349712, 53.54697030391907], [77.50461124856173, 53.56231561738196], [77.49120688327528, 53.5780689926589], [77.47912533140186, 53.594192478489006], [77.46839569845821, 53.61064723198267], [77.45904383306987, 53.62739361219746], [77.4510922646997, 53.64439127563662], [77.44456014937236, 53.661599273440125], [77.43946322352582, 53.678976150034], [77.43581376610092, 53.69648004300051], [77.43362056896018, 53.71406878392834], [77.43288891570771, 53.7317], [77.43362056896018, 53.74933121607165], [77.43581376610092, 53.76691995699948], [77.43946322352582, 53.78442384996599], [77.44456014937236, 53.80180072655987], [77.4510922646997, 53.81900872436337], [77.45904383306987, 53.836006387802534], [77.46839569845821, 53.852752768017325], [77.47912533140186, 53.86920752151099], [77.49120688327528, 53.885331007341094], [77.50461124856173, 53.90108438261803], [77.5193061349712, 53.916429696080925], [77.53525614123521, 53.93132997952554], [77.55242284239162, 53.94574933686397], [77.57076488235364, 53.95965303060138], [77.59023807354055, 53.97300756552174], [77.61079550332906, 53.98578076938072], [77.63238764707017, 53.99794187041141], [77.65496248739842, 54.00946157145624], [77.67846563954609, 54.0203121205464], [77.70284048236104, 54.030467377758725], [77.72802829471198, 54.039902878189096], [77.75396839695267, 54.04859589089053], [77.7805982971048, 54.056525473634004], [77.80785384140643, 54.06367252336014], [77.83566936886396, 54.070019822200145], [77.86397786943542, 54.075552078955155], [77.89271114546344, 54.08025596593408], [77.92179997596926, 54.084120151061164], [77.95117428341234, 54.087135325175986], [77.9807633025132, 54.089294224460005], [78.0104957507331, 54.09059164793574], [78.0403, 54.091024469996405], [78.0701042492669, 54.09059164793574], [78.09983669748681, 54.089294224460005], [78.12942571658766, 54.087135325175986], [78.15880002403074, 54.084120151061164], [78.18788885453657, 54.08025596593408], [78.21662213056456, 54.075552078955155], [78.24493063113601, 54.070019822200145], [78.27274615859358, 54.06367252336014], [78.30000170289517, 54.056525473634004], [78.32663160304733, 54.04859589089053], [78.35257170528803, 54.039902878189096], [78.37775951763896, 54.030467377758725], [78.40213436045389, 54.0203121205464], [78.42563751260158, 54.00946157145624], [78.44821235292983, 53.99794187041141], [78.46980449667095, 53.98578076938072], [78.49036192645943, 53.97300756552174], [78.50983511764633, 53.95965303060138], [78.52817715760838, 53.94574933686397], [78.5453438587648, 53.93132997952554], [78.5612938650288, 53.916429696080925], [78.57598875143827, 53.90108438261803], [78.58939311672472, 53.885331007341094], [78.60147466859814, 53.86920752151099], [78.61220430154177, 53.852752768017325], [78.62155616693013, 53.836006387802534], [78.62950773530031, 53.81900872436337], [78.63603985062764, 53.80180072655987], [78.64113677647416, 53.78442384996599], [78.64478623389908, 53.76691995699948], [78.6469794310398, 53.74933121607165], [78.6477110842923, 53.7317], [78.6469794310398, 53.71406878392834], [78.64478623389908, 53.69648004300051], [78.64113677647416, 53.678976150034], [78.63603985062764, 53.661599273440125], [78.62950773530031, 53.64439127563662], [78.62714936647826, 53.6393499105076], [78.615323, 53.636928]]]}}, {"type": "Feature", "properties": {"name": "Татарск", "score": 195, "lon": 75.9836, "lat": 55.2144}, "geometry": {"type": "Polygon", "coordinates": [[[76.612674734422, 55.19676878392834], [76.610400576377, 55.179180043000514], [76.60661640084228, 55.161676150034005], [76.60133132422814, 55.144299273440126], [76.59455807874704, 55.12709127563662], [76.58631298174066, 55.11009361219746], [76.57661589636982, 55.09334723198267], [76.56549018376259, 55.07689247848901], [76.5529626467351, 55.0607689926589], [76.53906346522135, 55.045015617381964], [76.523826123567, 55.02967030391907], [76.5072873298628, 55.01477002047445], [76.48948692751134, 55.000350663136025], [76.47046779924108, 54.986446969398614], [76.4502757637978, 54.973092434478254], [76.42895946556362, 54.96031923061928], [76.406570257368, 54.948158129588585], [76.38316207677457, 54.93663842854375], [76.35879131614067, 54.925787879453594], [76.33351668676332, 54.91563262224127], [76.30739907743845, 54.9061971218109], [76.28050140777461, 54.89750410910946], [76.25288847661395, 54.88957452636599], [76.22462680592625, 54.882427476639855], [76.19578448055157, 54.87608017779985], [76.1664309841781, 54.87054792104484], [76.13663703194965, 54.865844034065915], [76.10647440010678, 54.86197984893883], [76.07601575307154, 54.85896467482401], [76.04533446839244, 54.85680577553999], [76.0145044599717, 54.855508352064255], [75.9836, 54.85507553000359], [75.95269554002829, 54.855508352064255], [75.92186553160755, 54.85680577553999], [75.89118424692845, 54.85896467482401], [75.86072559989321, 54.86197984893883], [75.83056296805034, 54.865844034065915], [75.80076901582188, 54.87054792104484], [75.77141551944842, 54.87608017779985], [75.74257319407374, 54.882427476639855], [75.71431152338604, 54.88957452636599], [75.68669859222538, 54.89750410910946], [75.65980092256154, 54.9061971218109], [75.63368331323667, 54.91563262224127], [75.60840868385932, 54.925787879453594], [75.58403792322542, 54.93663842854375], [75.56062974263196, 54.948158129588585], [75.53824053443637, 54.96031923061928], [75.51692423620219, 54.973092434478254], [75.49673220075891, 54.986446969398614], [75.47771307248865, 55.000350663136025], [75.45991267013719, 55.01477002047445], [75.44337387643296, 55.02967030391907], [75.42813653477864, 55.045015617381964], [75.4142373532649, 55.0607689926589], [75.4017098162374, 55.07689247848901], [75.39058410363018, 55.09334723198267], [75.38088701825933, 55.11009361219746], [75.37264192125295, 55.12709127563662], [75.36586867577185, 55.144299273440126], [75.3605835991577, 55.161676150034005], [75.35679942362299, 55.179180043000514], [75.35452526557799, 55.19676878392834], [75.35376660366867, 55.2144], [75.35452526557799, 55.232031216071654], [75.35679942362299, 55.24961995699948], [75.3605835991577, 55.26712384996599], [75.36586867577185, 55.28450072655987], [75.37264192125295, 55.30170872436337], [75.38088701825933, 55.318706387802536], [75.39058410363018, 55.335452768017326], [75.4017098162374, 55.35190752151099], [75.4142373532649, 55.368031007341095], [75.42813653477864, 55.38378438261803], [75.44337387643296, 55.39912969608093], [75.45991267013719, 55.414029979525544], [75.47771307248865, 55.42844933686397], [75.49673220075891, 55.44235303060138], [75.51692423620219, 55.45570756552174], [75.53824053443637, 55.46848076938072], [75.56062974263196, 55.48064187041141], [75.58403792322542, 55.49216157145624], [75.60840868385932, 55.5030121205464], [75.63368331323667, 55.51316737775873], [75.65980092256154, 55.5226028781891], [75.68669859222538, 55.53129589089053], [75.71431152338604, 55.539225473634005], [75.74257319407374, 55.54637252336014], [75.77141551944842, 55.552719822200146], [75.80076901582188, 55.55825207895516], [75.83056296805034, 55.56295596593408], [75.86072559989321, 55.566820151061165], [75.89118424692845, 55.56983532517599], [75.92186553160755, 55.571994224460006], [75.95269554002829, 55.57329164793574], [75.9836, 55.57372446999641], [76.0145044599717, 55.57329164793574], [76.04533446839244, 55.571994224460006], [76.07601575307154, 55.56983532517599], [76.10647440010678, 55.566820151061165], [76.13663703194965, 55.56295596593408], [76.1664309841781, 55.55825207895516], [76.19578448055157, 55.552719822200146], [76.22462680592625, 55.54637252336014], [76.25288847661395, 55.539225473634005], [76.28050140777461, 55.53129589089053], [76.30739907743845, 55.5226028781891], [76.33351668676332, 55.51316737775873], [76.35879131614067, 55.5030121205464], [76.38316207677457, 55.49216157145624], [76.406570257368, 55.48064187041141], [76.42895946556362, 55.46848076938072], [76.4502757637978, 55.45570756552174], [76.47046779924108, 55.44235303060138], [76.48948692751134, 55.42844933686397], [76.5072873298628, 55.414029979525544], [76.523826123567, 55.39912969608093], [76.53906346522135, 55.38378438261803], [76.5529626467351, 55.368031007341095], [76.56549018376259, 55.35190752151099], [76.57661589636982, 55.335452768017326], [76.58631298174066, 55.318706387802536], [76.59455807874704, 55.30170872436337], [76.60133132422814, 55.28450072655987], [76.60661640084228, 55.26712384996599], [76.610400576377, 55.24961995699948], [76.612674734422, 55.232031216071654], [76.61343339633132, 55.2144], [76.612674734422, 55.19676878392834]]]}}, {"type": "Feature", "properties": {"name": "Купино", "score": 180, "lon": 76.95, "lat": 54.3661}, "geometry": {"type": "Polygon", "coordinates": [[[76.4435, 54.1667], [76.4543, 54.1691], [76.5806, 54.1479], [76.6163, 54.1624], [76.6531, 54.1243], [76.6984, 54.1481], [76.7573, 54.1651], [76.7598, 54.1866], [76.7831, 54.196], [76.8214, 54.229], [76.8321, 54.2296], [76.8382, 54.2627], [76.8341, 54.2754], [76.8528, 54.2806], [76.8768, 54.3017], [76.8682, 54.3494], [76.8611, 54.3623], [76.8152, 54.3682], [76.7871, 54.3606], [76.774, 54.3778], [76.7958, 54.3838], [76.8796, 54.3987], [76.886, 54.404], [76.9591, 54.4173], [76.9366, 54.4301], [76.9431, 54.4372], [76.9254, 54.4555], [76.8617, 54.4457], [76.8114, 54.4222], [76.7388, 54.4179], [76.7349, 54.3991], [76.6923, 54.3745], [76.6741, 54.3424], [76.6078, 54.3379], [76.6049, 54.3433], [76.5382, 54.3264], [76.5026, 54.3215], [76.4658, 54.3236], [76.3342183060211, 54.346641359103046], [76.33398693279965, 54.34846878392835], [76.3332440232149, 54.3661], [76.33398693279965, 54.38373121607166], [76.33621387181971, 54.40131995699949], [76.33991947538381, 54.418823849965996], [76.34509481636847, 54.436200726559875], [76.35172742692394, 54.45340872436338], [76.35980132851041, 54.47040638780254], [76.36929707039185, 54.48715276801733], [76.38019177649424, 54.50360752151099], [76.3924592005164, 54.5197310073411], [76.40606978915928, 54.53548438261804], [76.42099075332276, 54.55082969608093], [76.43718614709722, 54.56572997952555], [76.4546169543605, 54.580149336863975], [76.47324118277116, 54.59405303060139], [76.4930139649317, 54.60740756552175], [76.51388766647794, 54.620180769380724], [76.53581200083455, 54.632341870411416], [76.55873415035974, 54.64386157145625], [76.58259889358759, 54.65471212054641], [76.60734873826125, 54.66486737775873], [76.63292405983721, 54.6743028781891], [76.65926324512559, 54.68299589089054], [76.68630284072195, 54.69092547363401], [76.71397770587218, 54.698072523360146], [76.7422211694021, 54.70441982220015], [76.77096519033417, 54.70995207895516], [76.80014052180435, 54.714655965934085], [76.82967687788361, 54.71852015106117], [76.85950310290313, 54.72153532517599], [76.88954734287437, 54.72369422446001], [76.91973721859164, 54.724991647935745], [76.95, 54.72542446999641], [76.98026278140837, 54.724991647935745], [77.01045265712564, 54.72369422446001], [77.04049689709684, 54.72153532517599], [77.07032312211636, 54.71852015106117], [77.09985947819563, 54.714655965934085], [77.12903480966581, 54.70995207895516], [77.15777883059788, 54.70441982220015], [77.1860222941278, 54.698072523360146], [77.21369715927803, 54.69092547363401], [77.24073675487439, 54.68299589089054], [77.26707594016277, 54.6743028781891], [77.29265126173873, 54.66486737775873], [77.31740110641239, 54.65471212054641], [77.34126584964024, 54.64386157145625], [77.36418799916545, 54.632341870411416], [77.38611233352206, 54.620180769380724], [77.40698603506827, 54.60740756552175], [77.42675881722882, 54.59405303060139], [77.44538304563947, 54.580149336863975], [77.46281385290278, 54.56572997952555], [77.47900924667722, 54.55082969608093], [77.4939302108407, 54.53548438261804], [77.5075407994836, 54.5197310073411], [77.51980822350573, 54.50360752151099], [77.53070292960813, 54.48715276801733], [77.54019867148956, 54.47040638780254], [77.54827257307606, 54.45340872436338], [77.5549051836315, 54.436200726559875], [77.56008052461617, 54.418823849965996], [77.5637861281803, 54.40131995699949], [77.56601306720033, 54.38373121607166], [77.56675597678507, 54.3661], [77.56601306720033, 54.34846878392835], [77.5637861281803, 54.33088004300052], [77.56008052461617, 54.31337615003401], [77.5549051836315, 54.29599927344013], [77.54827257307606, 54.27879127563663], [77.54019867148956, 54.261793612197465], [77.53070292960813, 54.245047231982674], [77.51980822350573, 54.22859247848901], [77.5075407994836, 54.212468992658906], [77.4939302108407, 54.19671561738197], [77.47900924667722, 54.181370303919074], [77.46281385290278, 54.166470020474456], [77.44538304563947, 54.15205066313603], [77.42675881722882, 54.13814696939862], [77.40698603506827, 54.12479243447826], [77.38611233352206, 54.11201923061928], [77.36418799916545, 54.09985812958859], [77.34126584964024, 54.08833842854376], [77.31740110641239, 54.0774878794536], [77.29265126173873, 54.067332622241274], [77.26707594016277, 54.0578971218109], [77.24073675487439, 54.04920410910947], [77.21369715927803, 54.041274526365996], [77.1860222941278, 54.03412747663986], [77.15777883059788, 54.027780177799855], [77.12903480966581, 54.022247921044844], [77.09985947819563, 54.01754403406592], [77.07032312211636, 54.013679848938835], [77.04049689709684, 54.010664674824014], [77.01045265712564, 54.008505775539994], [76.98026278140837, 54.00720835206426], [76.95, 54.006775530003594], [76.91973721859164, 54.00720835206426], [76.88954734287437, 54.008505775539994], [76.85950310290313, 54.010664674824014], [76.82967687788361, 54.013679848938835], [76.80014052180435, 54.01754403406592], [76.77096519033417, 54.022247921044844], [76.7422211694021, 54.027780177799855], [76.71397770587218, 54.03412747663986], [76.68630284072195, 54.041274526365996], [76.65926324512559, 54.04920410910947], [76.63292405983721, 54.0578971218109], [76.60734873826125, 54.067332622241274], [76.58259889358759, 54.0774878794536], [76.55873415035974, 54.08833842854376], [76.53581200083455, 54.09985812958859], [76.51388766647794, 54.11201923061928], [76.4930139649317, 54.12479243447826], [76.47324118277116, 54.13814696939862], [76.4546169543605, 54.15205066313603], [76.44255197381617, 54.16203122589037], [76.4435, 54.1667]]]}}, {"type": "Feature", "properties": {"name": "Черепаново", "score": 180, "lon": 83.3733, "lat": 54.2206}, "geometry": {"type": "Polygon", "coordinates": [[[83.01226580144886, 54.375697610365194], [83.76835844302636, 54.495752860885936], [83.78602718702047, 54.48684187041141], [83.80787419578107, 54.47468076938072], [83.82867427723983, 54.46190756552174], [83.84837732217866, 54.44855303060138], [83.8669358642365, 54.43464933686397], [83.88430519425998, 54.420229979525544], [83.90044346801173, 54.405329696080926], [83.91531180697672, 54.38998438261803], [83.92887439202408, 54.374231007341095], [83.9410985496985, 54.35810752151099], [83.95195483093337, 54.341652768017326], [83.96141708199642, 54.324906387802535], [83.9694625074959, 54.30790872436337], [83.97607172529717, 54.29070072655987], [83.98122881321564, 54.27332384996599], [83.98492134737481, 54.25581995699948], [83.98714043213644, 54.238231216071654], [83.98788072153098, 54.2206], [83.98714043213644, 54.20296878392834], [83.98492134737481, 54.185380043000514], [83.98122881321564, 54.167876150034004], [83.97607172529717, 54.150499273440126], [83.9694625074959, 54.13329127563662], [83.96141708199642, 54.11629361219746], [83.95569550178551, 54.10616750615748], [83.955589, 54.106126], [83.913477, 54.099215], [83.883243, 54.08237], [83.861432, 54.078915], [83.857328, 54.087985], [83.884539, 54.105261], [83.883979, 54.121393], [83.83726, 54.118718], [83.829092, 54.12782], [83.786043, 54.112562], [83.729611, 54.101301], [83.663542, 54.11118], [83.55414, 54.109229], [83.532383, 54.093201], [83.533313, 54.077922], [83.490511, 54.077354], [83.475946, 54.063209], [83.488263, 53.978316], [83.442258, 53.973742], [83.451631, 53.94698], [83.349197, 53.934281], [83.306101, 54.064866], [83.301232, 54.084927], [83.290761, 54.085822], [83.289034, 54.069409], [83.274997, 54.051269], [83.220035, 54.049973], [83.198057, 54.065828], [83.099963, 54.01218], [83.084296, 54.00599], [83.102283, 53.998919], [82.99513731465335, 53.93748939346583], [82.9834141176843, 53.94283842854375], [82.9605728129795, 53.954358129588584], [82.93872580421893, 53.96651923061928], [82.91792572276017, 53.97929243447825], [82.89822267782134, 53.99264696939861], [82.8796641357635, 54.006550663136025], [82.86229480573999, 54.02097002047445], [82.84615653198827, 54.03587030391907], [82.83128819302325, 54.05121561738196], [82.81772560797592, 54.0669689926589], [82.8055014503015, 54.08309247848901], [82.7946451690666, 54.09954723198267], [82.78518291800358, 54.11629361219746], [82.7771374925041, 54.13329127563662], [82.77052827470283, 54.150499273440126], [82.76537118678434, 54.167876150034004], [82.76167865262519, 54.185380043000514], [82.75945956786356, 54.20296878392834], [82.75871927846902, 54.2206], [82.75945956786356, 54.238231216071654], [82.76078244737542, 54.24871652308429], [83.01226580144886, 54.375697610365194]]]}}, {"type": "Feature", "properties": {"name": "Болотное", "score": 178, "lon": 84.3894, "lat": 55.6717}, "geometry": {"type": "Polygon", "coordinates": [[[84.294221, 56.001946], [84.336326, 55.981167], [84.385253, 56.001404], [84.406505, 56.030504], [84.40751416608701, 56.03077370104978], [84.42066467929314, 56.03059164793574], [84.45185403923543, 56.02929422446001], [84.47057430250725, 56.02799214353995], [84.483103, 56.016658], [84.50640943215727, 56.0248341934834], [84.51370661193218, 56.02412015106117], [84.54422081642139, 56.02025596593408], [84.55670021720363, 56.01830841118751], [84.569463, 56.004814], [84.537699, 55.990263], [84.547174, 55.982751], [84.529289, 55.975096], [84.542031, 55.964568], [84.537429, 55.952566], [84.489601, 55.958431], [84.488248, 55.948302], [84.543114, 55.932037], [84.539776, 55.921118], [84.497994, 55.917215], [84.49231, 55.901287], [84.455401, 55.894249], [84.468757, 55.872659], [84.505214, 55.883849], [84.524706, 55.877622], [84.522902, 55.855672], [84.555749, 55.844347], [84.573346, 55.826457], [84.557464, 55.823547], [84.549343, 55.802138], [84.60457, 55.798618], [84.60818, 55.766539], [84.578581, 55.761936], [84.526062, 55.760447], [84.539147, 55.718644], [84.55909, 55.72099], [84.564776, 55.700506], [84.592118, 55.705018], [84.603038, 55.686722], [84.620364, 55.696829], [84.630152, 55.687777], [84.683261, 55.681579], [84.709612, 55.668201], [84.706544, 55.651123], [84.68272, 55.651484], [84.692196, 55.641829], [84.740925, 55.641355], [84.753108, 55.616156], [84.750582, 55.598965], [84.766645, 55.577286], [84.784063, 55.525339], [84.731091, 55.523932], [84.723331, 55.507057], [84.749862, 55.483076], [84.755728, 55.468435], [84.74658218922968, 55.4612776960699], [83.90514417248039, 55.43832938652219], [83.89685731796087, 55.44374696939862], [83.87761650461712, 55.45765066313603], [83.85960862254063, 55.472070020474455], [83.84287705429674, 55.48697030391907], [83.82746210769878, 55.50231561738197], [83.81340091870334, 55.518068992658904], [83.80072736194626, 55.53419247848901], [83.78947196913592, 55.55064723198267], [83.7796618554994, 55.56739361219746], [83.77132065445977, 55.58439127563663], [83.76446846070087, 55.60159927344013], [83.7591217817577, 55.61897615003401], [83.75529349824811, 55.63648004300052], [83.75299283284241, 55.654068783928345], [83.75222532804509, 55.6717], [83.75299283284241, 55.68933121607166], [83.75529349824811, 55.706919956999485], [83.7591217817577, 55.724423849965994], [83.76446846070087, 55.74180072655987], [83.77132065445977, 55.759008724363376], [83.7796618554994, 55.77600638780254], [83.78947196913592, 55.79275276801733], [83.80072736194626, 55.80920752151099], [83.81340091870334, 55.8253310073411], [83.82746210769878, 55.841084382618035], [83.84287705429674, 55.85642969608093], [83.85960862254063, 55.87132997952555], [83.87761650461712, 55.885749336863974], [83.89685731796087, 55.899653030601385], [83.91728470976736, 55.913007565521745], [83.93884946866038, 55.92578076938072], [83.96149964324695, 55.937941870411414], [83.98518066727263, 55.94946157145625], [84.00983549107627, 55.960312120546405], [84.03540471902781, 55.97046737775873], [84.06182675261758, 55.9799028781891], [84.08903793885227, 55.98859589089054], [84.1169727236009, 55.99652547363401], [84.14556380952018, 56.003672523360144], [84.17474231817988, 56.01001982220015], [84.20443795599684, 56.01555207895516], [84.2345791835786, 56.02025596593408], [84.2645238154178, 56.02404802287695], [84.294221, 56.001946]]]}}, {"type": "Feature", "properties": {"name": "Каргат", "score": 178, "lon": 80.2831, "lat": 55.1936}, "geometry": {"type": "Polygon", "coordinates": [[[80.58103575990418, 54.877088715049645], [80.5798463447969, 54.87670410910947], [80.55224783506777, 54.868774526365996], [80.52400092462942, 54.86162747663986], [80.49517366276318, 54.855280177799855], [80.46583549686791, 54.849747921044845], [80.43605710515492, 54.84504403406592], [80.40591022637817, 54.841179848938836], [80.3754674870092, 54.838164674824014], [80.34480222627353, 54.836005775539995], [80.31398831947031, 54.83470835206426], [80.2831, 54.834275530003595], [80.2522116805297, 54.83470835206426], [80.22139777372648, 54.836005775539995], [80.19073251299083, 54.838164674824014], [80.16028977362184, 54.841179848938836], [80.1301428948451, 54.84504403406592], [80.1003645031321, 54.849747921044845], [80.07102633723683, 54.855280177799855], [80.04219907537059, 54.86162747663986], [80.01395216493223, 54.868774526365996], [79.98635365520313, 54.87670410910947], [79.95947003341054, 54.885397121810904], [79.93336606455408, 54.894832622241275], [79.9081046353812, 54.9049878794536], [79.8837466028874, 54.91583842854376], [79.86035064770648, 54.92735812958859], [79.8379731327437, 54.93951923061928], [79.81666796739266, 54.95229243447826], [79.79648647766275, 54.96564696939862], [79.77747728253051, 54.97955066313603], [79.75968617681194, 54.99397002047446], [79.7431560208391, 55.008870303919075], [79.72792663720553, 55.02421561738197], [79.71403471483039, 55.039968992658906], [79.70151372057147, 55.05609247848901], [79.69039381860064, 55.072547231982675], [79.6807017977357, 55.089293612197466], [79.67246100690387, 55.10629127563663], [79.66569129889207, 55.12349927344013], [79.66040898251988, 55.14087615003401], [79.65662678335006, 55.15838004300052], [79.65435381303173, 55.17596878392835], [79.6535955473495, 55.1936], [79.65435381303173, 55.21123121607166], [79.65662678335006, 55.22881995699949], [79.66040898251988, 55.246323849966], [79.66569129889207, 55.263700726559875], [79.67246100690387, 55.28090872436338], [79.6807017977357, 55.29790638780254], [79.69039381860064, 55.31465276801733], [79.70151372057147, 55.331107521510994], [79.71403471483039, 55.3472310073411], [79.72792663720553, 55.36298438261804], [79.7431560208391, 55.37832969608093], [79.75968617681194, 55.39322997952555], [79.77747728253051, 55.407649336863976], [79.79648647766275, 55.42155303060139], [79.81666796739266, 55.43490756552175], [79.8379731327437, 55.447680769380725], [79.86035064770648, 55.45984187041142], [79.8837466028874, 55.47136157145625], [79.9081046353812, 55.48221212054641], [79.93336606455408, 55.49236737775873], [79.95947003341054, 55.5018028781891], [79.98635365520313, 55.51049589089054], [80.01395216493223, 55.51842547363401], [80.04219907537059, 55.52557252336015], [80.07102633723683, 55.53191982220015], [80.1003645031321, 55.53745207895516], [80.1301428948451, 55.542155965934086], [80.16028977362184, 55.54602015106117], [80.19073251299083, 55.54903532517599], [80.22139777372648, 55.55119422446001], [80.2522116805297, 55.552491647935746], [80.2831, 55.55292446999641], [80.31398831947031, 55.552491647935746], [80.34480222627353, 55.55119422446001], [80.3754674870092, 55.54903532517599], [80.40591022637817, 55.54602015106117], [80.43605710515492, 55.542155965934086], [80.46583549686791, 55.53745207895516], [80.49517366276318, 55.53191982220015], [80.52400092462942, 55.52557252336015], [80.55224783506777, 55.51842547363401], [80.5798463447969, 55.51049589089054], [80.60672996658947, 55.5018028781891], [80.63283393544593, 55.49236737775873], [80.6580953646188, 55.48221212054641], [80.67265748639848, 55.475725265860284], [80.58103575990418, 54.877088715049645]]]}}, {"type": "Feature", "properties": {"name": "Чулым", "score": 173, "lon": 80.96, "lat": 55.09}, "geometry": {"type": "Polygon", "coordinates": [[[80.66202391209102, 55.40624779048659], [80.66402300204926, 55.40689589089054], [80.6915499596707, 55.41482547363401], [80.71972363695271, 55.42197252336015], [80.74847616103908, 55.42831982220015], [80.77773826458075, 55.43385207895516], [80.80743945260731, 55.438555965934086], [80.83750817235527, 55.44242015106117], [80.86787198564501, 55.44543532517599], [80.89845774339084, 55.44759422446001], [80.9291917618233, 55.448891647935746], [80.96, 55.44932446999641], [80.99080823817665, 55.448891647935746], [81.02154225660912, 55.44759422446001], [81.05212801435495, 55.44543532517599], [81.08249182764469, 55.44242015106117], [81.11256054739265, 55.438555965934086], [81.14226173541921, 55.43385207895516], [81.17152383896091, 55.42831982220015], [81.20027636304725, 55.42197252336015], [81.22845004032926, 55.41482547363401], [81.2559769979507, 55.40689589089054], [81.28279092105954, 55.3982028781891], [81.30882721256641, 55.38876737775873], [81.33402314876453, 55.37861212054641], [81.35831803043676, 55.36776157145625], [81.3816533290851, 55.35624187041142], [81.40397282793121, 55.344080769380724], [81.42522275734738, 55.33130756552175], [81.44535192439245, 55.31795303060139], [81.46431183613983, 55.304049336863976], [81.48205681650144, 55.28962997952555], [81.49854411626534, 55.27472969608093], [81.51373401608224, 55.25938438261804], [81.52758992215304, 55.2436310073411], [81.54007845438635, 55.227507521510994], [81.55116952681418, 55.21105276801733], [81.5608364200716, 55.19430638780254], [81.56905584576599, 55.17730872436338], [81.57580800258096, 55.160100726559875], [81.58107662397926, 55.142723849965996], [81.58484901739054, 55.12521995699949], [81.58711609478864, 55.10763121607166], [81.58787239458546, 55.09], [81.58711609478864, 55.07236878392835], [81.58484901739054, 55.05478004300052], [81.58107662397926, 55.03727615003401], [81.57580800258096, 55.01989927344013], [81.56905584576599, 55.00269127563663], [81.5608364200716, 54.985693612197466], [81.55116952681418, 54.968947231982675], [81.54007845438635, 54.95249247848901], [81.52758992215304, 54.936368992658906], [81.51373401608224, 54.92061561738197], [81.49854411626534, 54.905270303919075], [81.48205681650144, 54.89037002047446], [81.46431183613983, 54.87595066313603], [81.44535192439245, 54.86204696939862], [81.42522275734738, 54.84869243447826], [81.40397282793121, 54.83591923061928], [81.3816533290851, 54.82375812958859], [81.35831803043676, 54.81223842854376], [81.33402314876453, 54.8013878794536], [81.30882721256641, 54.791232622241274], [81.28279092105954, 54.781797121810904], [81.2559769979507, 54.77310410910947], [81.22845004032926, 54.765174526365996], [81.20027636304725, 54.75802747663986], [81.17152383896091, 54.751680177799855], [81.14226173541921, 54.746147921044845], [81.11256054739265, 54.74144403406592], [81.08249182764469, 54.737579848938836], [81.05212801435495, 54.734564674824014], [81.02154225660912, 54.732405775539995], [80.99080823817665, 54.73110835206426], [80.96, 54.730675530003595], [80.9291917618233, 54.73110835206426], [80.89845774339084, 54.732405775539995], [80.86787198564501, 54.734564674824014], [80.83750817235527, 54.737579848938836], [80.80743945260731, 54.74144403406592], [80.77773826458075, 54.746147921044845], [80.74847616103908, 54.751680177799855], [80.71972363695271, 54.75802747663986], [80.6915499596707, 54.765174526365996], [80.66402300204926, 54.77310410910947], [80.63720907894044, 54.781797121810904], [80.61117278743355, 54.791232622241274], [80.58597685123543, 54.8013878794536], [80.57050713328353, 54.80829694517009], [80.66202391209102, 55.40624779048659]]]}}, {"type": "Feature", "properties": {"name": "Тогучин", "score": 171, "lon": 84.4014, "lat": 55.2317}, "geometry": {"type": "Polygon", "coordinates": [[[84.74658218922968, 55.4612776960699], [84.723873, 55.443506], [84.621925, 55.403696], [84.652224, 55.380406], [84.691568, 55.372194], [84.755007, 55.37788], [84.818897, 55.361344], [84.856888, 55.373887], [84.899302, 55.343702], [84.916447, 55.321729], [84.909319, 55.294612], [84.914373, 55.27573], [84.864795, 55.262629], [84.86059, 55.254298], [84.828465, 55.241168], [84.818268, 55.227091], [84.900351, 55.185079], [84.915457, 55.183957], [84.917623, 55.163789], [84.927188, 55.163608], [84.91609, 55.085529], [84.905081, 55.055163], [84.8781, 55.02024], [84.836829, 55.00887], [84.841651, 54.992675], [84.857075, 54.989243], [84.86153300558964, 54.986352006232906], [84.84695315473493, 54.977619230619275], [84.82455420935506, 54.96545812958858], [84.80113584842087, 54.95393842854375], [84.77675448881513, 54.94308787945359], [84.75146886736871, 54.93293262224127], [84.72533989935832, 54.9234971218109], [84.69843053175663, 54.91480410910946], [84.67080559158717, 54.90687452636599], [84.64253162975038, 54.89972747663985], [84.61367676069688, 54.89338017779985], [84.58431049833365, 54.88784792104484], [84.55450358855884, 54.883144034065914], [84.52432783882892, 54.87927984893883], [84.49385594516806, 54.87626467482401], [84.46316131703708, 54.87410577553999], [84.4323179004837, 54.872808352064254], [84.4014, 54.87237553000359], [84.3704820995163, 54.872808352064254], [84.33963868296291, 54.87410577553999], [84.30894405483195, 54.87626467482401], [84.2784721611711, 54.87927984893883], [84.24829641144115, 54.883144034065914], [84.21848950166634, 54.88784792104484], [84.18912323930311, 54.89338017779985], [84.16026837024961, 54.89972747663985], [84.13199440841285, 54.90687452636599], [84.10436946824336, 54.91480410910946], [84.07746010064167, 54.9234971218109], [84.0513311326313, 54.93293262224127], [84.02604551118486, 54.94308787945359], [84.00166415157912, 54.95393842854375], [83.97824579064496, 54.96545812958858], [83.95584684526509, 54.977619230619275], [83.9345212764608, 54.99039243447825], [83.91432045939524, 55.00374696939861], [83.89529305960619, 55.017650663136024], [83.87748491576622, 55.03207002047445], [83.86093892925373, 55.04697030391907], [83.84569496079948, 55.06231561738196], [83.83178973445868, 55.0780689926589], [83.8192567491395, 55.094192478489006], [83.80812619790143, 55.11064723198267], [83.79842489521721, 55.12739361219746], [83.7901762123748, 55.14439127563662], [83.78340002117369, 55.161599273440125], [83.77811264605194, 55.178976150034], [83.77432682475941, 55.19648004300051], [83.77205167767113, 55.21406878392834], [83.77129268581575, 55.2317], [83.77205167767113, 55.24933121607165], [83.77432682475941, 55.26691995699948], [83.77811264605194, 55.28442384996599], [83.78340002117369, 55.30180072655987], [83.7901762123748, 55.31900872436337], [83.79842489521721, 55.336006387802534], [83.80812619790143, 55.352752768017325], [83.8192567491395, 55.36920752151099], [83.83178973445868, 55.385331007341094], [83.84569496079948, 55.40108438261803], [83.86093892925373, 55.416429696080925], [83.87748491576622, 55.43132997952554], [83.88546651043109, 55.43779272301175], [84.74658218922968, 55.4612776960699]]]}}]}