{"type": "FeatureCollection", "features": [{"type": "Feature", "properties": {"name": "Якутск", "value": 211}, "geometry": {"type": "MultiPolygon", "coordinates": [[[[129.79307096508572, 62.18367842800683], [129.79307096508572, 62.1567290927571], [129.7739214647446, 62.1567290927571], [129.7739214647446, 62.13876286925728], [129.79307096508572, 62.13876286925728], [129.79307096508572, 62.129779757507364], [129.8313699657679, 62.129779757507364], [129.8313699657679, 62.13876286925728], [129.85051946610898, 62.13876286925728], [129.85051946610898, 62.111813534007545], [129.8122204654268, 62.111813534007545], [129.8122204654268, 62.066897975257994], [129.8313699657679, 62.066897975257994], [129.8313699657679, 62.05791486350809], [129.8122204654268, 62.05791486350809], [129.8122204654268, 62.030965528258356], [129.79307096508572, 62.030965528258356], [129.79307096508572, 62.02198241650844], [129.7739214647446, 62.02198241650844], [129.7739214647446, 61.99503308125872], [129.73562246406243, 61.99503308125872], [129.73562246406243, 61.986049969508805], [129.71647296372134, 61.986049969508805], [129.71647296372134, 61.99503308125872], [129.69732346338026, 61.99503308125872], [129.69732346338026, 61.986049969508805], [129.67817396303917, 61.986049969508805], [129.67817396303917, 61.95910063425907], [129.639874962357, 61.95910063425907], [129.639874962357, 61.95011752250917], [129.62072546201588, 61.95011752250917], [129.62072546201588, 61.941134410759254], [129.6015759616748, 61.941134410759254], [129.6015759616748, 61.93215129900934], [129.5824264613337, 61.93215129900934], [129.5824264613337, 61.923168187259435], [129.56327696099262, 61.923168187259435], [129.56327696099262, 61.91418507550952], [129.54412746065154, 61.91418507550952], [129.54412746065154, 61.923168187259435], [129.52497796031045, 61.923168187259435], [129.52497796031045, 61.93215129900934], [129.56327696099262, 61.93215129900934], [129.56327696099262, 61.95011752250917], [129.5824264613337, 61.95011752250917], [129.5824264613337, 61.95910063425907], [129.6015759616748, 61.95910063425907], [129.6015759616748, 62.01299930475854], [129.5824264613337, 62.01299930475854], [129.5824264613337, 62.02198241650844], [129.56327696099262, 62.02198241650844], [129.56327696099262, 62.03994864000826], [129.62072546201588, 62.03994864000826], [129.62072546201588, 62.048931751758175], [129.639874962357, 62.048931751758175], [129.639874962357, 62.05791486350809], [129.65902446269808, 62.05791486350809], [129.65902446269808, 62.066897975257994], [129.67817396303917, 62.066897975257994], [129.67817396303917, 62.08486419875781], [129.69732346338026, 62.08486419875781], [129.69732346338026, 62.093847310507726], [129.71647296372134, 62.093847310507726], [129.71647296372134, 62.12079664575746], [129.69732346338026, 62.12079664575746], [129.69732346338026, 62.129779757507364], [129.71647296372134, 62.129779757507364], [129.71647296372134, 62.1567290927571], [129.73562246406243, 62.1567290927571], [129.73562246406243, 62.16571220450701], [129.75477196440352, 62.16571220450701], [129.75477196440352, 62.174695316256916], [129.73562246406243, 62.174695316256916], [129.73562246406243, 62.18367842800683], [129.79307096508572, 62.18367842800683]]], [[[130.0037154688377, 62.37232377475494], [130.0037154688377, 62.35435755125512], [129.9845659684966, 62.35435755125512], [129.9845659684966, 62.345374439505214], [129.96541646815552, 62.345374439505214], [129.96541646815552, 62.3363913277553], [129.9462669678144, 62.3363913277553], [129.9462669678144, 62.35435755125512], [129.96541646815552, 62.35435755125512], [129.96541646815552, 62.37232377475494], [130.0037154688377, 62.37232377475494]]]]}}, {"type": "Feature", "properties": {"name": "Покровск", "value": 178}, "geometry": {"type": "MultiPolygon", "coordinates": [[[[129.0462404517832, 61.42909704101437], [129.00794145110103, 61.42909704101437], [129.00794145110103, 61.44706326451419], [129.0462404517832, 61.44706326451419], [129.0462404517832, 61.42909704101437]]], [[[129.0462404517832, 61.44706326451419], [129.0462404517832, 61.456046376264105], [129.0653899521243, 61.456046376264105], [129.0653899521243, 61.44706326451419], [129.0462404517832, 61.44706326451419]]], [[[129.08453945246538, 61.46502948801402], [129.08453945246538, 61.474012599763924], [129.10368895280646, 61.474012599763924], [129.10368895280646, 61.48299571151384], [129.12283845314755, 61.48299571151384], [129.12283845314755, 61.49197882326374], [129.14198795348864, 61.49197882326374], [129.14198795348864, 61.500961935013656], [129.18028695417084, 61.500961935013656], [129.18028695417084, 61.49197882326374], [129.16113745382975, 61.49197882326374], [129.16113745382975, 61.48299571151384], [129.14198795348864, 61.48299571151384], [129.14198795348864, 61.474012599763924], [129.12283845314755, 61.474012599763924], [129.12283845314755, 61.46502948801402], [129.10368895280646, 61.46502948801402], [129.10368895280646, 61.456046376264105], [129.0653899521243, 61.456046376264105], [129.0653899521243, 61.46502948801402], [129.08453945246538, 61.46502948801402]]]]}}]}